


G92 B-0
G92 B-0
G1 F300 B--6.5
;LAYER_COUNT:13
;LAYER:0

;MESH:Part Studio 1-2.stl
G0 F300 X-2.163 Y3.426 Z0.3
;TYPE:WALL-OUTER
G1 F300 B-0.08
G1 F147.4 X-.806 Y3.42 B-0.0039
G1 F145.3 X-.3 Y3.366 B-0.00538
G1 F141.5 X0.223 Y3.235 B-0.00699
G1 F134.8 X0.573 Y3.071 B-0.0082
G1 F127.7 X0.919 Y2.78 B-0.0097
G1 F123.5 X1.166 Y2.358 B-0.01138
G1 F123 X1.27 Y1.913 B-0.01295
G1 F124 X1.272 Y1.378 B-0.01478
G1 F125.5 X1.183 Y0.947 B-0.01626
G1 F130.4 X1.005 Y0.579 B-0.01759
G1 F136.4 X0.811 Y0.344 B-0.01854
G1 F142.2 X0.388 Y0.042 B-0.02008
G1 F146.7 X0.063 Y-0.088 B-0.02109
G1 F147.8 X-.437 Y-.201 B-0.02256
G1 F148.1 X-1.046 Y-.254 B-0.02431
G1 F135.7 X-1.701 Y-.256 B-0.02635
G1 F115.6 X-2.356 Y-.258 B-0.02875
G1 F116.7 X-2.399 Y-0.056 B-0.0295
G1 F124.5 X-2.398 Y3.366 B-0.04113
G1 F133.6 X-2.163 Y3.426 B-0.0419
G0 F60 X-1.963 Y3.426
G1 F300 B--6.4581
G0 F60 X-2.596 Y3.426
G0 X-2.356 Y-.662
G1 F300 B-0.0419
G1 F115.6 X-1.692 Y-.659 B-0.04433
G1 F135.7 X-1.028 Y-.657 B-0.0464
G1 F148.1 X-.373 Y-.602 B-0.04828
G1 F147.1 X0.089 Y-.506 B-0.04964
G1 F145.6 X0.547 Y-.342 B-0.05105
G1 F141.8 X0.886 Y-.145 B-0.05222
G1 F137 X1.257 Y0.171 B-0.05373
G1 F130.4 X1.612 Y0.745 B-0.05592
G1 F125.5 X1.752 Y1.316 B-0.0579
G1 F122.7 X1.769 Y1.757 B-0.05942
G1 F121.5 X1.724 Y2.186 B-0.06092
G1 F121 X1.581 Y2.643 B-0.0626
G1 F122.4 X1.297 Y3.082 B-0.06441
G1 F126.8 X0.877 Y3.422 B-0.06621
G1 F131.3 X0.633 Y3.546 B-0.06709
G1 F135.4 X0.037 Y3.741 B-0.06905
G1 F141.5 X-.753 Y3.826 B-0.07143
G1 F147.1 X-2.162 Y3.832 B-0.07548
G1 F133.6 X-2.867 Y3.778 B-0.07772
G1 F124.5 X-2.869 Y-0.056 B-0.09076
G1 F116.7 X-2.826 Y-.46 B-0.09223
G1 F116.3 X-2.867 Y-.783 B-0.09342
G1 F127.1 X-2.869 Y-3.805 B-0.10348
G1 F127.7 X-2.399 Y-3.805 B-0.10504
G1 F127.1 X-2.398 Y-.823 B-0.11496
G1 F116.3 X-2.356 Y-.662 B-0.11557
G0 F60 X-2.156 Y-.662
G1 F300 B--6.38443
G0 F60 X-2.676 Y-.662
G0 X-2.675 Y3.456
G0 X-3.77 Y3.456
G0 X-4.481 Y3.082
G0 X-8.26 Y3.309
G1 F300 B-0.11557
G1 F140.8 X-7.855 Y3.449 B-0.11686
G1 F142.9 X-7.122 Y3.517 B-0.11904
G1 X-6.338 Y3.438 B-0.12137
G1 F141.5 X-5.642 Y3.266 B-0.12352
G1 F140.2 X-5.38 Y3.168 B-0.12436
G1 X-5.234 Y3.576 B-0.12567
G1 F138.2 X-5.806 Y3.767 B-0.12752
G1 F137.6 X-6.685 Y3.916 B-0.13026
G1 F139.5 X-7.261 Y3.936 B-0.13201
G1 F141.2 X-7.848 Y3.881 B-0.13377
G1 F139.5 X-8.527 Y3.656 B-0.13594
G1 F135.7 X-8.941 Y3.38 B-0.13749
G1 F130.4 X-9.297 Y2.933 B-0.13935
G1 F127.1 X-9.456 Y2.511 B-0.14085
G1 F126.3 X-9.494 Y2.189 B-0.14194
G1 F125 X-9.478 Y1.841 B-0.14312
G1 F125.5 X-9.345 Y1.267 B-0.1451
G1 F127.1 X-9.019 Y0.77 B-0.14708
G1 F128.2 X-8.772 Y0.546 B-0.14818
G1 F129.9 X-8.148 Y0.151 B-0.15059
G1 F132.7 X-7.026 Y-.271 B-0.15441
G1 F133.3 X-6.293 Y-.616 B-0.15698
G1 F130.2 X-5.937 Y-.863 B-0.15839
G1 F126.1 X-5.662 Y-1.174 B-0.15979
G1 F125 X-5.522 Y-1.525 B-0.16107
G1 F126.1 X-5.472 Y-1.985 B-0.16262
G1 F128.5 X-5.56 Y-2.51 B-0.16437
G1 F132.7 X-5.703 Y-2.781 B-0.16535
G1 F137.3 X-5.953 Y-3.062 B-0.16651
G1 F142.2 X-6.321 Y-3.298 B-0.16781
G1 F146 X-6.663 Y-3.421 B-0.16886
G1 F145.6 X-7.055 Y-3.501 B-0.17003
G1 F143.5 X-7.815 Y-3.533 B-0.17227
G1 F143.2 X-8.322 Y-3.491 B-0.17377
G1 F140.8 X-9.022 Y-3.365 B-0.17591
G1 F138.2 X-9.621 Y-3.176 B-0.17783
G1 F137 X-9.621 Y-3.628 B-0.17923
G1 F136.4 X-9.304 Y-3.743 B-0.18028
G1 F137.6 X-8.618 Y-3.88 B-0.18243
G1 F141.2 X-7.82 Y-3.951 B-0.18483
G1 F143.5 X-6.987 Y-3.912 B-0.18729
G1 F144.2 X-6.345 Y-3.754 B-0.18923
G1 F143.5 X-6.056 Y-3.631 B-0.19015
G1 F140.5 X-5.655 Y-3.378 B-0.19158
G1 F134.5 X-5.24 Y-2.899 B-0.19358
G1 F130.7 X-5.121 Y-2.646 B-0.19448
G1 F128.8 X-4.997 Y-1.986 B-0.19669
G1 F125 X-5.019 Y-1.589 B-0.19804
G1 F123.2 X-5.148 Y-1.113 B-0.19973
G1 F123.5 X-5.261 Y-.905 B-0.20054
G1 F124 X-5.469 Y-.652 B-0.20166
G1 F125.5 X-5.712 Y-.442 B-0.20274
G1 F129.6 X-6.362 Y-0.052 B-0.20522
G1 F132.7 X-7.676 Y0.45 B-0.2097
G1 X-8.403 Y0.833 B-0.21232
G1 F130.2 X-8.724 Y1.145 B-0.21378
G1 F127.7 X-8.91 Y1.451 B-0.21497
G1 F126.6 X-9.02 Y2.152 B-0.21734
G1 F126.3 X-8.99 Y2.417 B-0.21823
G1 F127.7 X-8.844 Y2.787 B-0.21955
G1 F131 X-8.649 Y3.037 B-0.22058
G1 F136.1 X-8.26 Y3.309 B-0.22205
G0 F60 X-8.072 Y3.374
G1 F300 B--6.27795
G0 F60 X-8.928 Y3.066
G0 X-8.117 Y3.595
G0 X-7.659 Y2.594
G0 X-4.863 Y2.05
G0 X-3.758 Y4.691
G0 X-.721 Y4.697
G0 X0.211 Y4.612
G0 X3.042 Y3.595
G0 X9.135 Y0.6
G1 F300 B-0.22205
G1 F116.1 X9.088 Y0.39 B-0.22284
G1 F106.4 X4.456 Y0.39 B-0.24126
G1 F116.1 X4.409 Y0.6 B-0.24205
G1 F127.7 X4.409 Y3.801 B-0.25266
G1 X3.939 Y3.801 B-0.25422
G1 X3.939 Y0.6 B-0.26483
G1 F116.1 X3.986 Y0.18 B-0.26637
G1 F115.6 X3.941 Y-.159 B-0.26763
G1 F127.1 X3.939 Y-3.805 B-0.27976
G1 F127.7 X4.409 Y-3.805 B-0.28132
G1 F127.1 X4.41 Y-.199 B-0.29333
G1 F115.6 X4.456 Y-0.03 B-0.29397
G1 F106.4 X9.088 Y-0.03 B-0.3124
G1 F115.8 X9.134 Y-.199 B-0.31304
G1 F127.1 X9.135 Y-3.805 B-0.32504
G1 F127.7 X9.605 Y-3.805 B-0.3266
G1 F127.1 X9.604 Y-.159 B-0.33874
G1 F115.8 X9.558 Y0.18 B-0.33999
G1 F116.1 X9.605 Y0.6 B-0.34153
G1 F127.7 X9.605 Y3.801 B-0.35215
G1 X9.135 Y3.801 B-0.3537
G1 X9.135 Y0.6 B-0.36432
G0 F60 X9.092 Y0.405
G1 F300 B--6.13568
;MESH:NONMESH
G0 F600 X9.092 Y0.405 Z0.4
G0 F60 X9.362 Y0.22
G0 X4.208 Y0.162
G0 X4.137 Y3.426
G0 X-2.596 Y3.426
G0 X-2.163 Y3.426
;TIME_ELAPSED:140.499396
;LAYER:1
;TYPE:WALL-OUTER
;MESH:Part Studio 1-2.stl
G1 F300 B-0.36432
G1 F147.1 X-.797 Y3.419 B-0.36563
G1 F142.9 X-0.003 Y3.309 B-0.36642
G1 F136.4 X0.436 Y3.145 B-0.3669
G1 F132.2 X0.674 Y3.001 B-0.3672
G1 F126.1 X1.057 Y2.592 B-0.36783
G1 F122 X1.192 Y2.293 B-0.36821
G1 F122.2 X1.269 Y1.937 B-0.36863
G1 F123.2 X1.271 Y1.363 B-0.36928
G1 F126.6 X1.109 Y0.759 B-0.36998
G1 F134.5 X0.807 Y0.34 B-0.37052
G1 F142.2 X0.465 Y0.085 B-0.37095
G1 F146.3 X0.219 Y-0.029 B-0.37121
G1 F147.1 X-.42 Y-.199 B-0.37184
G1 X-1.046 Y-.254 B-0.37245
G1 F124.7 X-2.356 Y-.258 B-0.37393
G1 F116.7 X-2.399 Y-0.056 B-0.37418
G1 F124.5 X-2.398 Y3.366 B-0.37805
G1 F133.6 X-2.163 Y3.426 B-0.37831
G0 F90 X-1.963 Y3.425
G1 F300 B--6.12169
G0 F90 X-2.596 Y3.425
G0 X-2.356 Y-.662
G1 F300 B-0.37831
G1 F115.4 X-1.637 Y-.659 B-0.37919
G1 F134.5 X-.918 Y-.656 B-0.37994
G1 F144.6 X-.192 Y-.58 B-0.38066
G1 F142.9 X0.517 Y-.359 B-0.38139
G1 F141.5 X0.886 Y-.145 B-0.38181
G1 F135.7 X1.254 Y0.173 B-0.38232
G1 F131 X1.516 Y0.538 B-0.3828
G1 F126.1 X1.696 Y1.021 B-0.38338
G1 F123.2 X1.75 Y1.3 B-0.38371
G1 X1.755 Y2.004 B-0.38451
G1 F122.2 X1.668 Y2.424 B-0.38501
G1 F122 X1.491 Y2.825 B-0.38552
G1 X1.3 Y3.073 B-0.38588
G1 F125.8 X0.877 Y3.422 B-0.38649
G1 F131.6 X0.654 Y3.537 B-0.38676
G1 F135.7 X0.037 Y3.742 B-0.38744
G1 F142.2 X-.744 Y3.825 B-0.38822
G1 F147.1 X-2.162 Y3.832 B-0.38958
G1 F133.6 X-2.867 Y3.778 B-0.39032
G1 F124.5 X-2.869 Y-0.056 B-0.39467
G1 F116.7 X-2.826 Y-.46 B-0.39516
G1 F116.3 X-2.867 Y-.783 B-0.39555
G1 F127.1 X-2.869 Y-3.805 B-0.39891
G1 F127.7 X-2.399 Y-3.805 B-0.39943
G1 F127.1 X-2.398 Y-.823 B-0.40274
G1 F116.3 X-2.356 Y-.662 B-0.40294
G0 F90 X-2.156 Y-.662
G1 F300 B--6.09706
G0 F90 X-2.676 Y-.662
G0 X-2.675 Y2.96
G0 X-3.77 Y2.96
G0 X-4.863 Y2.05
G0 X-7.929 Y2.484
G0 X-7.837 Y3.456
G1 F300 B-0.40294
G1 F143.5 X-7.122 Y3.517 B-0.40364
G1 F142.9 X-6.338 Y3.438 B-0.40442
G1 F141.5 X-5.642 Y3.266 B-0.40514
G1 F140.2 X-5.38 Y3.168 B-0.40542
G1 X-5.234 Y3.576 B-0.40585
G1 F138.2 X-5.806 Y3.767 B-0.40647
G1 F137.6 X-6.685 Y3.916 B-0.40738
G1 F139.5 X-7.25 Y3.936 B-0.40796
G1 F140.8 X-7.818 Y3.885 B-0.40853
G1 F140.2 X-8.176 Y3.798 B-0.4089
G1 F138.9 X-8.528 Y3.658 B-0.40928
G1 F134.8 X-8.939 Y3.378 B-0.4098
G1 F130.2 X-9.239 Y3.037 B-0.4103
G1 F126.3 X-9.45 Y2.522 B-0.41092
G1 F124.7 X-9.491 Y2.045 B-0.41146
G1 F126.1 X-9.395 Y1.412 B-0.41217
G1 X-9.181 Y0.973 B-0.41272
G1 F126.6 X-8.77 Y0.548 B-0.41338
G1 F129.9 X-8.349 Y0.271 B-0.41393
G1 F132.2 X-7.94 Y0.073 B-0.41441
G1 F133.3 X-7.026 Y-.271 B-0.41545
G1 X-6.292 Y-.619 B-0.41631
G1 F128.2 X-5.767 Y-1.029 B-0.41704
G1 F125.3 X-5.576 Y-1.355 B-0.41746
G1 F125.8 X-5.482 Y-1.714 B-0.41788
G1 F127.4 X-5.48 Y-2.151 B-0.41836
G1 F130.7 X-5.642 Y-2.688 B-0.41897
G1 F136.4 X-5.804 Y-2.907 B-0.41925
G1 F141.8 X-6.109 Y-3.175 B-0.41966
G1 F144.2 X-6.63 Y-3.412 B-0.42022
G1 F146.7 X-7.082 Y-3.499 B-0.42066
G1 F146.3 X-7.752 Y-3.532 B-0.4213
G1 F143.9 X-8.266 Y-3.498 B-0.42181
G1 F141.5 X-9.022 Y-3.365 B-0.42258
G1 F138.2 X-9.621 Y-3.176 B-0.42322
G1 F137 X-9.621 Y-3.628 B-0.42368
G1 F136.4 X-9.304 Y-3.743 B-0.42403
G1 F137.3 X-8.618 Y-3.879 B-0.42475
G1 F140.8 X-7.82 Y-3.95 B-0.42555
G1 F144.2 X-7.177 Y-3.923 B-0.42618
G1 F144.9 X-6.457 Y-3.79 B-0.42689
G1 F142.2 X-6.06 Y-3.631 B-0.42732
G1 F138.6 X-5.672 Y-3.385 B-0.42779
G1 F135.1 X-5.271 Y-2.947 B-0.42841
G1 F131 X-5.158 Y-2.734 B-0.42867
G1 F127.7 X-5.041 Y-2.365 B-0.42909
G1 F126.6 X-4.998 Y-1.987 B-0.42952
G1 F125.5 X-5.017 Y-1.585 B-0.42997
G1 F123.7 X-5.074 Y-1.325 B-0.43027
G1 F123.5 X-5.27 Y-.895 B-0.43081
G1 F124.5 X-5.412 Y-.706 B-0.43108
G1 F124.7 X-5.709 Y-.449 B-0.43153
G1 F127.1 X-6.221 Y-.138 B-0.43219
G1 F131.3 X-6.677 Y0.068 B-0.43273
G1 F133 X-7.676 Y0.45 B-0.43386
G1 F132.7 X-8.12 Y0.664 B-0.43439
G1 F130.4 X-8.651 Y1.059 B-0.4351
G1 F129 X-8.889 Y1.411 B-0.43557
G1 F129.3 X-8.975 Y1.685 B-0.43588
G1 F128.2 X-9.008 Y2.285 B-0.43654
G1 F127.7 X-8.903 Y2.676 B-0.43699
G1 F130.4 X-8.727 Y2.948 B-0.43734
G1 F135.4 X-8.478 Y3.174 B-0.43769
G1 F139.5 X-8.214 Y3.33 B-0.438
G1 F142.2 X-7.837 Y3.456 B-0.43839
G0 F90 X-7.638 Y3.472
G1 F300 B--6.06161
G0 F90 X-9.005 Y2.96
G0 X-8.805 Y3.228
G0 X-7.929 Y2.484
G0 X-4.863 Y2.05
G0 X-3.758 Y4.691
G0 X-.721 Y4.697
G0 X0.211 Y4.612
G0 X0.885 Y4.402
G0 X3.042 Y3.228
G0 X9.135 Y0.6
G1 F300 B-0.43839
G1 F116.1 X9.088 Y0.39 B-0.43866
G1 F106.4 X4.456 Y0.39 B-0.4448
G1 F116.1 X4.409 Y0.6 B-0.44506
G1 F127.7 X4.409 Y3.801 B-0.4486
G1 X3.939 Y3.801 B-0.44912
G1 X3.939 Y0.6 B-0.45265
G1 F116.1 X3.986 Y0.18 B-0.45317
G1 F115.6 X3.941 Y-.159 B-0.45358
G1 F127.1 X3.939 Y-3.805 B-0.45763
G1 F127.7 X4.409 Y-3.805 B-0.45815
G1 F127.1 X4.41 Y-.199 B-0.46215
G1 F115.6 X4.456 Y-0.03 B-0.46237
G1 F106.4 X9.088 Y-0.03 B-0.46851
G1 F115.8 X9.134 Y-.199 B-0.46872
G1 F127.1 X9.135 Y-3.805 B-0.47272
G1 F127.7 X9.605 Y-3.805 B-0.47324
G1 F127.1 X9.604 Y-.159 B-0.47729
G1 F115.8 X9.558 Y0.18 B-0.47771
G1 F116.1 X9.605 Y0.6 B-0.47822
G1 F127.7 X9.605 Y3.801 B-0.48176
G1 X9.135 Y3.801 B-0.48228
G1 X9.135 Y0.6 B-0.48582
G0 F90 X9.092 Y0.405
G1 F300 B--6.01418
;MESH:NONMESH
G0 F600 X9.092 Y0.405 Z0.5
G0 F90 X9.362 Y0.22
G0 X4.208 Y0.162
G0 X4.137 Y3.426
G0 X-2.596 Y3.426
G0 X-2.163 Y3.426
;TIME_ELAPSED:239.198511
;LAYER:2
;TYPE:WALL-OUTER
;MESH:Part Studio 1-2.stl
G1 F300 B-0.48582
G1 F147.8 X-.857 Y3.423 B-0.48706
G1 F144.9 X-.22 Y3.355 B-0.48769
G1 F140.5 X0.204 Y3.241 B-0.48813
G1 F134.5 X0.674 Y3.001 B-0.48868
G1 F126.3 X1.056 Y2.593 B-0.4893
G1 F122.2 X1.189 Y2.303 B-0.48967
G1 F123.5 X1.267 Y1.93 B-0.49011
G1 F124 X1.273 Y1.384 B-0.49073
G1 F126.1 X1.151 Y0.87 B-0.49132
G1 F131 X1 Y0.574 B-0.49168
G1 F137.6 X0.649 Y0.202 B-0.4922
G1 F144.9 X0.063 Y-0.088 B-0.49284
G1 F147.8 X-.438 Y-.201 B-0.49333
G1 X-1.046 Y-.254 B-0.49391
G1 F124.7 X-2.356 Y-.258 B-0.49539
G1 F116.7 X-2.399 Y-0.056 B-0.49564
G1 F124.5 X-2.398 Y3.366 B-0.49952
G1 F133.6 X-2.163 Y3.426 B-0.49978
G0 F120 X-1.963 Y3.426
G1 F300 B--6.00022
G0 F120 X-2.596 Y3.426
G0 X-2.356 Y-.662
G1 F300 B-0.49978
G1 F115.4 X-1.638 Y-.658 B-0.50066
G1 F134.8 X-.92 Y-.655 B-0.50141
G1 F147.4 X-.384 Y-.603 B-0.50192
G1 F147.1 X0.089 Y-.506 B-0.50239
G1 F143.5 X0.544 Y-.336 B-0.50286
G1 F141.2 X0.888 Y-.148 B-0.50325
G1 F137.6 X1.255 Y0.172 B-0.50375
G1 F131.3 X1.515 Y0.538 B-0.50424
G1 F125.8 X1.696 Y1.021 B-0.50481
G1 F123 X1.75 Y1.299 B-0.50514
G1 X1.766 Y1.855 B-0.50578
G1 F122.2 X1.663 Y2.443 B-0.50647
G1 X1.488 Y2.828 B-0.50696
G1 F122 X1.296 Y3.077 B-0.50732
G1 F127.7 X0.797 Y3.488 B-0.50803
G1 F135.7 X0.037 Y3.742 B-0.50887
G1 F141.5 X-.753 Y3.826 B-0.50966
G1 F147.1 X-2.163 Y3.832 B-0.51101
G1 F133.6 X-2.867 Y3.778 B-0.51176
G1 F124.5 X-2.869 Y-0.056 B-0.5161
G1 F116.7 X-2.826 Y-.46 B-0.51659
G1 F116.3 X-2.867 Y-.783 B-0.51699
G1 F127.1 X-2.869 Y-3.805 B-0.52034
G1 F127.7 X-2.399 Y-3.805 B-0.52086
G1 F127.1 X-2.398 Y-.823 B-0.52417
G1 F116.3 X-2.356 Y-.662 B-0.52437
G0 F120 X-2.156 Y-.662
G1 F300 B--5.97563
G0 F120 X-2.676 Y-.662
G0 X-2.675 Y3.456
G0 X-3.77 Y3.456
G0 X-4.481 Y3.081
G0 X-8.26 Y3.309
G1 F300 B-0.52437
G1 F140.8 X-7.855 Y3.449 B-0.5248
G1 F142.2 X-7.148 Y3.518 B-0.52551
G1 F142.9 X-6.389 Y3.451 B-0.52626
G1 F140.8 X-5.891 Y3.343 B-0.52677
G1 F138.9 X-5.384 Y3.166 B-0.52731
G1 F138.6 X-5.237 Y3.574 B-0.52776
G1 F138.2 X-5.806 Y3.769 B-0.52837
G1 F138.6 X-6.598 Y3.913 B-0.52919
G1 F139.9 X-7.234 Y3.939 B-0.52983
G1 F140.8 X-7.848 Y3.881 B-0.53045
G1 F139.5 X-8.527 Y3.656 B-0.53117
G1 F135.7 X-8.941 Y3.38 B-0.53169
G1 F130.4 X-9.298 Y2.933 B-0.53231
G1 F126.6 X-9.455 Y2.511 B-0.53281
G1 F126.1 X-9.494 Y2.198 B-0.53316
G1 F124.5 X-9.452 Y1.665 B-0.53377
G1 F125 X-9.313 Y1.202 B-0.53431
G1 F126.8 X-9.194 Y0.989 B-0.53459
G1 F127.7 X-8.846 Y0.609 B-0.53516
G1 F128.8 X-8.49 Y0.358 B-0.53563
G1 F131 X-7.8 Y0.019 B-0.53646
G1 F133.9 X-6.966 Y-.295 B-0.5374
G1 F133 X-6.432 Y-.539 B-0.53802
G1 F129.3 X-6.024 Y-.794 B-0.53855
G1 F125.5 X-5.662 Y-1.174 B-0.53914
G1 F124.2 X-5.518 Y-1.53 B-0.53957
G1 F126.3 X-5.476 Y-2.036 B-0.54014
G1 F128.8 X-5.505 Y-2.31 B-0.54044
G1 F131 X-5.642 Y-2.688 B-0.54087
G1 F136.4 X-5.804 Y-2.907 B-0.54116
G1 F141.8 X-6.11 Y-3.175 B-0.54156
G1 F145.6 X-6.687 Y-3.426 B-0.54217
G1 F147.1 X-7.387 Y-3.526 B-0.54285
G1 F145.6 X-8.064 Y-3.515 B-0.54351
G1 F142.9 X-8.71 Y-3.431 B-0.54415
G1 F139.5 X-9.254 Y-3.307 B-0.54471
G1 F138.9 X-9.625 Y-3.178 B-0.54511
G1 F139.5 X-9.625 Y-3.63 B-0.54557
G1 F138.2 X-9.305 Y-3.745 B-0.54592
G1 X-8.619 Y-3.88 B-0.54663
G1 F142.2 X-8.044 Y-3.932 B-0.5472
G1 F143.9 X-7.045 Y-3.927 B-0.54818
G1 F142.9 X-6.346 Y-3.75 B-0.54889
G1 F141.2 X-6.058 Y-3.628 B-0.54921
G1 F138.9 X-5.672 Y-3.385 B-0.54967
G1 F135.1 X-5.271 Y-2.947 B-0.55029
G1 F131 X-5.157 Y-2.735 B-0.55055
G1 F129 X-5.042 Y-2.369 B-0.55097
G1 F125.8 X-5.001 Y-1.789 B-0.55162
G1 F123.7 X-5.041 Y-1.455 B-0.552
G1 F123.5 X-5.147 Y-1.116 B-0.55241
G1 X-5.261 Y-.905 B-0.55268
G1 F125.5 X-5.712 Y-.442 B-0.55341
G1 F129.3 X-6.209 Y-.142 B-0.55404
G1 F132.2 X-6.677 Y0.069 B-0.55459
G1 F133.9 X-7.676 Y0.451 B-0.55572
G1 X-8.395 Y0.836 B-0.55658
G1 F131 X-8.755 Y1.185 B-0.55712
G1 F128.2 X-8.901 Y1.436 B-0.55744
G1 F127.1 X-9.02 Y2.149 B-0.55824
G1 F126.6 X-8.983 Y2.442 B-0.55857
G1 F128.5 X-8.812 Y2.84 B-0.55904
G1 F132.2 X-8.636 Y3.05 B-0.55934
G1 F136.4 X-8.26 Y3.309 B-0.55981
G0 F120 X-8.072 Y3.374
G1 F300 B--5.94019
G0 F120 X-8.932 Y3.063
G0 X-8.117 Y3.595
G0 X-7.659 Y2.594
G0 X-4.858 Y2.062
G0 X-3.758 Y4.691
G0 X-.721 Y4.697
G0 X0.211 Y4.612
G0 X3.042 Y3.595
G0 X9.135 Y0.6
G1 F300 B-0.55981
G1 F116.1 X9.088 Y0.39 B-0.56007
G1 F106.4 X4.456 Y0.39 B-0.56621
G1 F116.1 X4.409 Y0.6 B-0.56647
G1 F127.7 X4.409 Y3.801 B-0.57001
G1 X3.939 Y3.801 B-0.57053
G1 X3.939 Y0.6 B-0.57407
G1 F116.1 X3.986 Y0.18 B-0.57458
G1 F115.6 X3.941 Y-.159 B-0.575
G1 F127.1 X3.939 Y-3.805 B-0.57905
G1 F127.7 X4.409 Y-3.805 B-0.57957
G1 F127.1 X4.41 Y-.199 B-0.58357
G1 F115.6 X4.456 Y-0.03 B-0.58378
G1 F106.4 X9.088 Y-0.03 B-0.58992
G1 F115.8 X9.134 Y-.199 B-0.59014
G1 F127.1 X9.135 Y-3.805 B-0.59414
G1 F127.7 X9.605 Y-3.805 B-0.59466
G1 F127.1 X9.604 Y-.159 B-0.59871
G1 F115.8 X9.558 Y0.18 B-0.59912
G1 F116.1 X9.605 Y0.6 B-0.59964
G1 F127.7 X9.605 Y3.801 B-0.60317
G1 X9.135 Y3.801 B-0.60369
G1 X9.135 Y0.6 B-0.60723
G0 F120 X9.092 Y0.405
G1 F300 B--5.89277
;MESH:NONMESH
G0 F600 X9.092 Y0.405 Z0.6
G0 F120 X9.362 Y0.22
G0 X4.208 Y0.162
G0 X4.137 Y3.426
G0 X-2.596 Y3.426
G0 X-2.163 Y3.426
;TIME_ELAPSED:328.409427
;LAYER:3
;TYPE:WALL-OUTER
;MESH:Part Studio 1-2.stl
G1 F300 B-0.60723
G1 F147.1 X-.797 Y3.419 B-0.60854
G1 F143.2 X-.116 Y3.334 B-0.60922
G1 F137.6 X0.422 Y3.155 B-0.6098
G1 F132.2 X0.703 Y2.975 B-0.61015
G1 F125.8 X1.06 Y2.587 B-0.61075
G1 F122 X1.19 Y2.3 B-0.61111
G1 F123.5 X1.281 Y1.673 B-0.61183
G1 F126.6 X1.214 Y1.069 B-0.61251
G1 F129.9 X1.005 Y0.576 B-0.61309
G1 F135.1 X0.803 Y0.332 B-0.61342
G1 F142.2 X0.388 Y0.042 B-0.61393
G1 F146.7 X0.063 Y-0.088 B-0.61426
G1 F147.8 X-.438 Y-.201 B-0.61475
G1 X-1.046 Y-.254 B-0.61534
G1 F124.7 X-2.356 Y-.258 B-0.61682
G1 F116.7 X-2.399 Y-0.056 B-0.61707
G1 F124.5 X-2.398 Y3.366 B-0.62095
G1 F133.6 X-2.163 Y3.426 B-0.6212
G0 F120 X-1.963 Y3.425
G1 F300 B--5.8788
G0 F120 X-2.596 Y3.425
G0 X-2.356 Y-.662
G1 F300 B-0.6212
G1 F115.4 X-1.638 Y-.658 B-0.62208
G1 F134.8 X-.92 Y-.655 B-0.62283
G1 F147.4 X-.384 Y-.603 B-0.62335
G1 F147.1 X0.089 Y-.506 B-0.62381
G1 F145.6 X0.547 Y-.342 B-0.62428
G1 F140.2 X1.147 Y0.059 B-0.62501
G1 F133.9 X1.397 Y0.342 B-0.6254
G1 F128.5 X1.608 Y0.753 B-0.62591
G1 F124.2 X1.748 Y1.313 B-0.62657
G1 F121 X1.749 Y2.004 B-0.62737
G1 F120.5 X1.663 Y2.444 B-0.6279
G1 F122 X1.493 Y2.823 B-0.62838
G1 F123 X1.144 Y3.227 B-0.62899
G1 F128.8 X0.621 Y3.554 B-0.62967
G1 F136.4 X0.037 Y3.742 B-0.6303
G1 F142.2 X-.752 Y3.826 B-0.63109
G1 F147.1 X-2.162 Y3.832 B-0.63244
G1 F133.6 X-2.867 Y3.778 B-0.63319
G1 F124.5 X-2.869 Y-0.056 B-0.63753
G1 F116.7 X-2.826 Y-.46 B-0.63802
G1 F116.3 X-2.867 Y-.783 B-0.63842
G1 F127.1 X-2.869 Y-3.805 B-0.64177
G1 F127.7 X-2.399 Y-3.805 B-0.64229
G1 F127.1 X-2.398 Y-.823 B-0.6456
G1 F116.3 X-2.356 Y-.662 B-0.6458
G0 F120 X-2.156 Y-.662
G1 F300 B--5.8542
G0 F120 X-2.676 Y-.662
G0 X-2.675 Y2.945
G0 X-3.77 Y2.945
G0 X-4.863 Y2.05
G0 X-8 Y2.426
G0 X-8.029 Y3.401
G1 F300 B-0.6458
G1 F142.9 X-7.563 Y3.499 B-0.64627
G1 F144.2 X-6.936 Y3.513 B-0.64689
G1 F143.2 X-6.333 Y3.439 B-0.64749
G1 F141.5 X-5.642 Y3.266 B-0.6482
G1 F140.2 X-5.38 Y3.168 B-0.64848
G1 X-5.234 Y3.576 B-0.64891
G1 F138.2 X-5.806 Y3.767 B-0.64953
G1 X-6.69 Y3.919 B-0.65045
G1 F140.2 X-7.217 Y3.939 B-0.65098
G1 F140.8 X-7.848 Y3.881 B-0.65161
G1 X-8.175 Y3.801 B-0.65195
G1 F139.5 X-8.533 Y3.654 B-0.65234
G1 F136.4 X-8.917 Y3.402 B-0.65281
G1 F132.2 X-9.209 Y3.084 B-0.65328
G1 F127.4 X-9.349 Y2.823 B-0.6536
G1 F125.8 X-9.479 Y2.362 B-0.65414
G1 F125.5 X-9.491 Y2.068 B-0.65447
G1 X-9.439 Y1.587 B-0.65501
G1 F126.6 X-9.317 Y1.21 B-0.65546
G1 F127.7 X-9.02 Y0.768 B-0.65604
G1 F128.2 X-8.77 Y0.548 B-0.65641
G1 F129.9 X-8.349 Y0.271 B-0.65696
G1 F132.2 X-7.94 Y0.073 B-0.65744
G1 F133.3 X-7.026 Y-.271 B-0.65848
G1 F133.9 X-6.313 Y-.598 B-0.6593
G1 F128.8 X-5.822 Y-.969 B-0.65998
G1 F125.3 X-5.651 Y-1.198 B-0.6603
G1 F126.1 X-5.528 Y-1.494 B-0.66066
G1 F126.6 X-5.469 Y-1.983 B-0.66121
G1 F128.8 X-5.534 Y-2.42 B-0.66169
G1 F133.9 X-5.764 Y-2.859 B-0.66221
G1 F140.2 X-6.109 Y-3.175 B-0.66268
G1 F144.2 X-6.63 Y-3.412 B-0.66324
G1 F146.7 X-7.082 Y-3.499 B-0.66369
G1 F145.6 X-7.815 Y-3.533 B-0.6644
G1 F143.2 X-8.322 Y-3.491 B-0.6649
G1 F140.8 X-9.022 Y-3.365 B-0.66561
G1 F138.2 X-9.621 Y-3.176 B-0.66625
G1 F137 X-9.621 Y-3.628 B-0.66672
G1 F136.4 X-9.304 Y-3.743 B-0.66707
G1 F137.6 X-8.618 Y-3.88 B-0.66778
G1 F141.2 X-7.82 Y-3.951 B-0.66858
G1 F144.2 X-7.177 Y-3.923 B-0.66921
G1 F144.9 X-6.457 Y-3.79 B-0.66993
G1 F142.2 X-6.06 Y-3.631 B-0.67035
G1 F138.6 X-5.672 Y-3.385 B-0.67082
G1 F133.3 X-5.276 Y-2.945 B-0.67145
G1 F128.8 X-5.159 Y-2.733 B-0.67171
G1 F127.7 X-5.04 Y-2.365 B-0.67214
G1 F127.1 X-4.996 Y-1.987 B-0.67256
G1 F125.5 X-5.018 Y-1.595 B-0.673
G1 F123.5 X-5.117 Y-1.199 B-0.67347
G1 X-5.303 Y-.841 B-0.67393
G1 F125 X-5.713 Y-.444 B-0.67457
G1 F128.5 X-6.21 Y-.143 B-0.67521
G1 F131.9 X-6.677 Y0.069 B-0.67576
G1 F133.3 X-7.676 Y0.45 B-0.67689
G1 F132.7 X-8.156 Y0.685 B-0.67746
G1 F130.4 X-8.655 Y1.059 B-0.67813
G1 F128.5 X-8.935 Y1.528 B-0.67873
G1 F128.2 X-9.004 Y1.845 B-0.67909
G1 F127.4 X-9.005 Y2.322 B-0.67962
G1 F127.9 X-8.821 Y2.831 B-0.68022
G1 F132.2 X-8.614 Y3.074 B-0.68056
G1 F136.4 X-8.311 Y3.283 B-0.68094
G1 F139.5 X-8.029 Y3.401 B-0.68125
G0 F120 X-7.834 Y3.442
G1 F300 B--5.81875
G0 F120 X-9.028 Y2.945
G0 X-8.746 Y3.237
G0 X-8 Y2.426
G0 X-4.863 Y2.05
G0 X-3.758 Y4.691
G0 X-.721 Y4.697
G0 X0.211 Y4.612
G0 X0.838 Y4.416
G0 X3.042 Y3.237
G0 X9.135 Y0.6
G1 F300 B-0.68125
G1 F116.1 X9.088 Y0.39 B-0.68151
G1 F106.4 X4.456 Y0.39 B-0.68765
G1 F116.1 X4.409 Y0.6 B-0.68791
G1 F127.7 X4.409 Y3.801 B-0.69145
G1 X3.939 Y3.801 B-0.69197
G1 X3.939 Y0.6 B-0.69551
G1 F116.1 X3.986 Y0.18 B-0.69602
G1 F115.6 X3.941 Y-.159 B-0.69644
G1 F127.1 X3.939 Y-3.805 B-0.70048
G1 F127.7 X4.409 Y-3.805 B-0.701
G1 F127.1 X4.41 Y-.199 B-0.70501
G1 F115.6 X4.456 Y-0.03 B-0.70522
G1 F106.4 X9.088 Y-0.03 B-0.71136
G1 F115.8 X9.134 Y-.199 B-0.71158
G1 F127.1 X9.135 Y-3.805 B-0.71558
G1 F127.7 X9.605 Y-3.805 B-0.7161
G1 F127.1 X9.604 Y-.159 B-0.72014
G1 F115.8 X9.558 Y0.18 B-0.72056
G1 F116.1 X9.605 Y0.6 B-0.72107
G1 F127.7 X9.605 Y3.801 B-0.72461
G1 X9.135 Y3.801 B-0.72513
G1 X9.135 Y0.6 B-0.72867
G0 F120 X9.092 Y0.405
G1 F300 B--5.77133
;MESH:NONMESH
G0 F600 X9.092 Y0.405 Z0.7
G0 F120 X9.362 Y0.22
G0 X4.208 Y0.162
G0 X4.137 Y3.426
G0 X-2.596 Y3.426
G0 X-2.163 Y3.426
;TIME_ELAPSED:417.918903
;LAYER:4
;TYPE:WALL-OUTER
;MESH:Part Studio 1-2.stl
G1 F300 B-0.72867
G1 F147.4 X-.806 Y3.42 B-0.72997
G1 F145.3 X-.3 Y3.366 B-0.73046
G1 F141.5 X0.223 Y3.235 B-0.731
G1 F134.8 X0.573 Y3.071 B-0.7314
G1 F127.1 X0.925 Y2.774 B-0.73191
G1 F123 X1.192 Y2.293 B-0.73255
G1 F124 X1.265 Y1.926 B-0.73297
G1 F125.5 X1.255 Y1.271 B-0.73371
G1 F127.4 X1.144 Y0.846 B-0.73419
G1 F130.4 X1.007 Y0.58 B-0.73452
G1 F136.1 X0.708 Y0.25 B-0.73498
G1 F143.2 X0.438 Y0.069 B-0.7353
G1 F147.8 X0.059 Y-0.087 B-0.73569
G1 F148.1 X-.454 Y-.204 B-0.73619
G1 F147.4 X-1.046 Y-.254 B-0.73676
G1 F124.7 X-2.356 Y-.258 B-0.73824
G1 F116.7 X-2.399 Y-0.056 B-0.73849
G1 F124.5 X-2.398 Y3.366 B-0.74237
G1 F133.6 X-2.163 Y3.426 B-0.74263
G0 F120 X-1.963 Y3.426
G1 F300 B--5.75737
G0 F120 X-2.596 Y3.426
G0 X-2.356 Y-.662
G1 F300 B-0.74263
G1 F115.6 X-1.692 Y-.66 B-0.74344
G1 F135.4 X-1.028 Y-.658 B-0.74413
G1 F145.6 X-.218 Y-.589 B-0.74492
G1 F143.5 X0.553 Y-.336 B-0.74571
G1 F142.5 X0.864 Y-.165 B-0.74606
G1 F138.2 X1.142 Y0.061 B-0.74643
G1 F133.3 X1.397 Y0.343 B-0.74683
G1 F129.3 X1.611 Y0.752 B-0.74734
G1 F124.7 X1.749 Y1.318 B-0.74799
G1 F121.7 X1.767 Y1.717 B-0.74846
G1 F121.5 X1.669 Y2.416 B-0.74928
G1 F120.7 X1.486 Y2.826 B-0.7498
G1 F121.5 X1.303 Y3.075 B-0.75016
G1 F126.6 X0.877 Y3.422 B-0.75077
G1 F131.3 X0.633 Y3.546 B-0.75107
G1 F135.4 X0.037 Y3.741 B-0.75172
G1 F141.5 X-.753 Y3.826 B-0.75251
G1 F147.1 X-2.162 Y3.832 B-0.75386
G1 F133.6 X-2.867 Y3.778 B-0.75461
G1 F124.5 X-2.869 Y-0.056 B-0.75896
G1 F116.7 X-2.826 Y-.46 B-0.75945
G1 F116.3 X-2.867 Y-.783 B-0.75984
G1 F127.1 X-2.869 Y-3.805 B-0.7632
G1 F127.7 X-2.399 Y-3.805 B-0.76372
G1 F127.1 X-2.398 Y-.823 B-0.76703
G1 F116.3 X-2.356 Y-.662 B-0.76723
G0 F120 X-2.156 Y-.662
G1 F300 B--5.73277
G0 F120 X-2.676 Y-.662
G0 X-2.675 Y2.961
G0 X-3.77 Y2.961
G0 X-4.863 Y2.05
G0 X-8.021 Y2.405
G0 X-8.211 Y3.331
G1 F300 B-0.76723
G1 F140.8 X-7.793 Y3.46 B-0.76767
G1 F141.8 X-7.106 Y3.517 B-0.76835
G1 F142.5 X-6.338 Y3.438 B-0.76911
G1 F141.5 X-5.642 Y3.266 B-0.76983
G1 F140.2 X-5.38 Y3.168 B-0.77011
G1 X-5.234 Y3.576 B-0.77055
G1 F138.2 X-5.806 Y3.767 B-0.77116
G1 F137.6 X-6.69 Y3.916 B-0.77208
G1 F139.5 X-7.222 Y3.939 B-0.77262
G1 F140.8 X-7.852 Y3.881 B-0.77325
G1 X-8.367 Y3.731 B-0.77379
G1 F137 X-8.914 Y3.405 B-0.77445
G1 F131.6 X-9.21 Y3.085 B-0.77491
G1 F127.4 X-9.378 Y2.764 B-0.77532
G1 F126.3 X-9.495 Y2.188 B-0.77597
G1 F126.1 X-9.481 Y1.869 B-0.77633
G1 F126.3 X-9.37 Y1.333 B-0.77694
G1 F126.6 X-9.24 Y1.061 B-0.77728
G1 F126.8 X-9.023 Y0.773 B-0.77768
G1 F128.8 X-8.772 Y0.545 B-0.77805
G1 F131 X-8.349 Y0.271 B-0.77859
G1 F132.2 X-7.94 Y0.073 B-0.77908
G1 F133.3 X-7.026 Y-.271 B-0.78011
G1 F133.9 X-6.303 Y-.607 B-0.78095
G1 F129.3 X-5.817 Y-.973 B-0.78161
G1 F124.5 X-5.633 Y-1.23 B-0.78197
G1 X-5.478 Y-1.743 B-0.78258
G1 F127.1 X-5.499 Y-2.284 B-0.78318
G1 F130.4 X-5.68 Y-2.749 B-0.78372
G1 F135.1 X-5.886 Y-2.999 B-0.78406
G1 F141.2 X-6.195 Y-3.231 B-0.78444
G1 F144.9 X-6.832 Y-3.458 B-0.7851
G1 F145.6 X-7.489 Y-3.538 B-0.78574
G1 F143.9 X-8.318 Y-3.491 B-0.78656
G1 F140.8 X-9.022 Y-3.365 B-0.78727
G1 F138.2 X-9.621 Y-3.176 B-0.78792
G1 F137 X-9.621 Y-3.628 B-0.78838
G1 F136.4 X-9.304 Y-3.743 B-0.78873
G1 F137.9 X-8.543 Y-3.895 B-0.78952
G1 F140.2 X-7.82 Y-3.946 B-0.79025
G1 F142.9 X-7.174 Y-3.922 B-0.79089
G1 F143.5 X-6.581 Y-3.822 B-0.79148
G1 F140.8 X-5.879 Y-3.533 B-0.79224
G1 F137 X-5.396 Y-3.119 B-0.7929
G1 F132.5 X-5.246 Y-2.905 B-0.79318
G1 F129.3 X-5.043 Y-2.382 B-0.79379
G1 F127.1 X-5.001 Y-1.706 B-0.79454
G1 F123.5 X-5.084 Y-1.305 B-0.79501
G1 F122.2 X-5.187 Y-1.032 B-0.79535
G1 F124.5 X-5.47 Y-.646 B-0.79589
G1 F125.8 X-5.714 Y-.445 B-0.79624
G1 F127.7 X-6.21 Y-.144 B-0.79688
G1 F131.3 X-6.677 Y0.068 B-0.79743
G1 F133 X-7.676 Y0.45 B-0.79857
G1 F132.7 X-8.13 Y0.669 B-0.7991
G1 F131 X-8.498 Y0.915 B-0.79958
G1 F129.6 X-8.745 Y1.167 B-0.79997
G1 F128.2 X-8.921 Y1.482 B-0.80036
G1 F126.8 X-9.02 Y2.137 B-0.8011
G1 F126.6 X-8.96 Y2.525 B-0.80154
G1 F127.9 X-8.815 Y2.839 B-0.80192
G1 F131.6 X-8.637 Y3.052 B-0.80222
G1 F137 X-8.211 Y3.331 B-0.80274
G0 F120 X-8.02 Y3.39
G1 F300 B--5.69726
G0 F120 X-9.013 Y2.961
G0 X-8.767 Y3.218
G0 X-8.021 Y2.405
G0 X-4.863 Y2.05
G0 X-3.758 Y4.691
G0 X-.721 Y4.697
G0 X0.211 Y4.612
G0 X0.885 Y4.402
G0 X3.042 Y3.218
G0 X9.135 Y0.6
G1 F300 B-0.80274
G1 F116.1 X9.088 Y0.39 B-0.803
G1 F106.4 X4.456 Y0.39 B-0.80914
G1 F116.1 X4.409 Y0.6 B-0.80941
G1 F127.7 X4.409 Y3.801 B-0.81294
G1 X3.939 Y3.801 B-0.81346
G1 X3.939 Y0.6 B-0.817
G1 F116.1 X3.986 Y0.18 B-0.81751
G1 F115.6 X3.941 Y-.159 B-0.81793
G1 F127.1 X3.939 Y-3.805 B-0.82198
G1 F127.7 X4.409 Y-3.805 B-0.8225
G1 F127.1 X4.41 Y-.199 B-0.8265
G1 F115.6 X4.456 Y-0.03 B-0.82671
G1 F106.4 X9.088 Y-0.03 B-0.83286
G1 F115.8 X9.134 Y-.199 B-0.83307
G1 F127.1 X9.135 Y-3.805 B-0.83707
G1 F127.7 X9.605 Y-3.805 B-0.83759
G1 F127.1 X9.604 Y-.159 B-0.84164
G1 F115.8 X9.558 Y0.18 B-0.84205
G1 F116.1 X9.605 Y0.6 B-0.84257
G1 F127.7 X9.605 Y3.801 B-0.8461
G1 X9.135 Y3.801 B-0.84662
G1 X9.135 Y0.6 B-0.85016
G0 F120 X9.092 Y0.405
G1 F300 B--5.64984
;MESH:NONMESH
G0 F600 X9.092 Y0.405 Z0.8
G0 F120 X9.362 Y0.22
G0 X4.208 Y0.162
G0 X4.137 Y3.426
G0 X-2.596 Y3.426
G0 X-2.163 Y3.426
;TIME_ELAPSED:507.340653
;LAYER:5
;TYPE:WALL-OUTER
;MESH:Part Studio 1-2.stl
G1 F300 B-0.85016
G1 F147.1 X-.795 Y3.42 B-0.85147
G1 F143.5 X-.128 Y3.338 B-0.85213
G1 F140.2 X0.186 Y3.247 B-0.85246
G1 F136.4 X0.582 Y3.061 B-0.85292
G1 F129.9 X0.96 Y2.724 B-0.85347
G1 F124 X1.183 Y2.321 B-0.85399
G1 X1.275 Y1.887 B-0.8545
G1 F126.6 X1.257 Y1.264 B-0.85519
G1 F128.5 X1.135 Y0.822 B-0.85569
G1 F131.9 X0.989 Y0.553 B-0.85602
G1 F137.6 X0.657 Y0.207 B-0.85651
G1 F144.6 X0.068 Y-0.084 B-0.85715
G1 F147.8 X-.437 Y-.201 B-0.85765
G1 F148.1 X-1.046 Y-.254 B-0.85823
G1 F135.7 X-1.701 Y-.256 B-0.85891
G1 F115.6 X-2.356 Y-.258 B-0.85971
G1 F116.7 X-2.399 Y-0.056 B-0.85996
G1 F124.5 X-2.398 Y3.366 B-0.86384
G1 F133.6 X-2.163 Y3.426 B-0.86409
G0 F120 X-1.963 Y3.426
G1 F300 B--5.63591
G0 F120 X-2.596 Y3.426
G0 X-2.356 Y-.662
G1 F300 B-0.86409
G1 F115.6 X-1.692 Y-.659 B-0.8649
G1 F135.7 X-1.028 Y-.657 B-0.86559
G1 F148.1 X-.373 Y-.602 B-0.86622
G1 F147.1 X0.089 Y-.505 B-0.86667
G1 F142.9 X0.544 Y-.336 B-0.86715
G1 F140.8 X0.891 Y-.146 B-0.86755
G1 F137.9 X1.145 Y0.062 B-0.86789
G1 F132.7 X1.397 Y0.342 B-0.86829
G1 F129.3 X1.611 Y0.752 B-0.86879
G1 F125.3 X1.75 Y1.316 B-0.86944
G1 F122.7 X1.765 Y1.827 B-0.87003
G1 F122 X1.651 Y2.481 B-0.8708
G1 F121.2 X1.49 Y2.819 B-0.87124
G1 F122.4 X1.143 Y3.227 B-0.87185
G1 F128.5 X0.62 Y3.553 B-0.87253
G1 F136.1 X0.037 Y3.743 B-0.87317
G1 F142.5 X-.748 Y3.826 B-0.87395
G1 F147.1 X-2.162 Y3.832 B-0.8753
G1 F133.6 X-2.867 Y3.778 B-0.87605
G1 F124.5 X-2.869 Y-0.056 B-0.8804
G1 F116.7 X-2.826 Y-.46 B-0.88089
G1 F116.3 X-2.867 Y-.783 B-0.88128
G1 F127.1 X-2.869 Y-3.805 B-0.88464
G1 F127.7 X-2.399 Y-3.805 B-0.88515
G1 F127.1 X-2.398 Y-.823 B-0.88846
G1 F116.3 X-2.356 Y-.662 B-0.88867
G0 F120 X-2.156 Y-.662
G1 F300 B--5.61133
G0 F120 X-2.676 Y-.662
G0 X-2.675 Y2.982
G0 X-3.77 Y2.982
G0 X-4.863 Y2.05
G0 X-8.018 Y2.401
G0 X-7.855 Y3.449
G1 F300 B-0.88867
G1 F142.2 X-7.142 Y3.521 B-0.88938
G1 F142.5 X-6.338 Y3.438 B-0.89018
G1 F141.5 X-5.642 Y3.266 B-0.89089
G1 F140.2 X-5.38 Y3.168 B-0.89117
G1 X-5.234 Y3.576 B-0.89161
G1 F138.2 X-5.806 Y3.767 B-0.89222
G1 F137.6 X-6.69 Y3.916 B-0.89314
G1 F139.5 X-7.214 Y3.94 B-0.89367
G1 F141.2 X-7.848 Y3.881 B-0.89431
G1 F139.5 X-8.528 Y3.658 B-0.89503
G1 F134.8 X-8.939 Y3.378 B-0.89555
G1 F129.3 X-9.232 Y3.039 B-0.89604
G1 F126.6 X-9.42 Y2.641 B-0.89653
G1 F125.5 X-9.49 Y2.199 B-0.89704
G1 F124.7 X-9.431 Y1.554 B-0.89777
G1 F125.5 X-9.32 Y1.211 B-0.89817
G1 F127.1 X-9.093 Y0.853 B-0.89864
G1 F129.3 X-8.594 Y0.424 B-0.89936
G1 F131.6 X-7.932 Y0.069 B-0.90017
G1 F133.6 X-7.026 Y-.271 B-0.90119
G1 X-6.289 Y-.616 B-0.90205
G1 F129 X-5.849 Y-.941 B-0.90265
G1 F125 X-5.674 Y-1.158 B-0.90296
G1 F124.2 X-5.537 Y-1.457 B-0.90334
G1 F125.5 X-5.469 Y-1.987 B-0.90394
G1 F127.7 X-5.548 Y-2.456 B-0.90446
G1 F131.9 X-5.759 Y-2.863 B-0.90495
G1 F138.9 X-6.07 Y-3.148 B-0.90538
G1 F144.2 X-6.486 Y-3.368 B-0.90584
G1 F146.3 X-6.852 Y-3.462 B-0.9062
G1 F145.6 X-7.493 Y-3.536 B-0.90683
G1 F143.9 X-8.318 Y-3.491 B-0.90764
G1 F140.8 X-9.022 Y-3.365 B-0.90836
G1 F138.2 X-9.621 Y-3.176 B-0.909
G1 F137 X-9.621 Y-3.628 B-0.90946
G1 F136.4 X-9.304 Y-3.743 B-0.90981
G1 F137.6 X-8.618 Y-3.88 B-0.91053
G1 F140.2 X-7.82 Y-3.947 B-0.91133
G1 F141.8 X-6.987 Y-3.91 B-0.91216
G1 F144.2 X-6.345 Y-3.755 B-0.91281
G1 F143.2 X-6.057 Y-3.629 B-0.91312
G1 F138.9 X-5.666 Y-3.382 B-0.91359
G1 F136.4 X-5.402 Y-3.127 B-0.91397
G1 F131.9 X-5.123 Y-2.652 B-0.91456
G1 F128.2 X-5.042 Y-2.376 B-0.91488
G1 F127.7 X-4.996 Y-1.985 B-0.91531
G1 F125.5 X-5.015 Y-1.632 B-0.91571
G1 F123.5 X-5.088 Y-1.271 B-0.91613
G1 F124 X-5.28 Y-.875 B-0.91663
G1 F126.1 X-5.584 Y-.522 B-0.91715
G1 F129.3 X-6.21 Y-.143 B-0.91795
G1 F131.6 X-6.677 Y0.068 B-0.9185
G1 F132.7 X-7.71 Y0.463 B-0.91967
G1 F132.2 X-8.367 Y0.824 B-0.92047
G1 F129.3 X-8.749 Y1.176 B-0.92104
G1 F127.7 X-8.919 Y1.481 B-0.92143
G1 F128.2 X-9.01 Y1.978 B-0.92198
G1 F127.7 X-8.971 Y2.483 B-0.92254
G1 F129.9 X-8.727 Y2.948 B-0.92311
G1 F135.4 X-8.478 Y3.174 B-0.92346
G1 F139.5 X-8.214 Y3.33 B-0.92377
G1 F141.5 X-7.855 Y3.449 B-0.92415
G0 F120 X-7.657 Y3.469
G1 F300 B--5.57585
G0 F120 X-8.985 Y2.982
G0 X-8.018 Y2.401
G0 X-4.863 Y2.05
G0 X-3.758 Y4.691
G0 X-.721 Y4.697
G0 X0.211 Y4.612
G0 X0.985 Y4.37
G0 X3.042 Y3.059
G0 X9.135 Y0.6
G1 F300 B-0.92415
G1 F116.1 X9.088 Y0.39 B-0.92441
G1 F106.4 X4.456 Y0.39 B-0.93055
G1 F116.1 X4.409 Y0.6 B-0.93082
G1 F127.7 X4.409 Y3.801 B-0.93435
G1 X3.939 Y3.801 B-0.93487
G1 X3.939 Y0.6 B-0.93841
G1 F116.1 X3.986 Y0.18 B-0.93892
G1 F115.6 X3.941 Y-.159 B-0.93934
G1 F127.1 X3.939 Y-3.805 B-0.94339
G1 F127.7 X4.409 Y-3.805 B-0.94391
G1 F127.1 X4.41 Y-.199 B-0.94791
G1 F115.6 X4.456 Y-0.03 B-0.94812
G1 F106.4 X9.088 Y-0.03 B-0.95427
G1 F115.8 X9.134 Y-.199 B-0.95448
G1 F127.1 X9.135 Y-3.805 B-0.95848
G1 F127.7 X9.605 Y-3.805 B-0.959
G1 F127.1 X9.604 Y-.159 B-0.96305
G1 F115.8 X9.558 Y0.18 B-0.96346
G1 F116.1 X9.605 Y0.6 B-0.96398
G1 F127.7 X9.605 Y3.801 B-0.96752
G1 X9.135 Y3.801 B-0.96803
G1 X9.135 Y0.6 B-0.97157
G0 F120 X9.092 Y0.405
G1 F300 B--5.52843
;MESH:NONMESH
G0 F600 X9.092 Y0.405 Z0.9
G0 F120 X9.362 Y0.22
G0 X4.208 Y0.162
G0 X4.137 Y3.426
G0 X-2.596 Y3.426
G0 X-2.163 Y3.426
;TIME_ELAPSED:596.810301
;LAYER:6
;TYPE:WALL-OUTER
;MESH:Part Studio 1-2.stl
G1 F300 B-0.97157
G1 F147.1 X-.795 Y3.42 B-0.97288
G1 F144.9 X-.249 Y3.358 B-0.97342
G1 F139.5 X0.321 Y3.196 B-0.97402
G1 F131.6 X0.765 Y2.932 B-0.97457
G1 F124.5 X1.051 Y2.6 B-0.97507
G1 F122 X1.186 Y2.316 B-0.97543
G1 F122.4 X1.265 Y1.961 B-0.97585
G1 F123.5 X1.285 Y1.57 B-0.9763
G1 F125 X1.226 Y1.094 B-0.97684
G1 F128.8 X1.014 Y0.588 B-0.97744
G1 F138.2 X0.617 Y0.188 B-0.97802
G1 F145.6 X0.112 Y-0.067 B-0.97856
G1 F147.1 X-.442 Y-.201 B-0.97911
G1 F148.5 X-1.046 Y-.254 B-0.97969
G1 F135.7 X-1.701 Y-.256 B-0.98037
G1 F115.6 X-2.356 Y-.258 B-0.98117
G1 F116.7 X-2.399 Y-0.056 B-0.98142
G1 F124.5 X-2.398 Y3.366 B-0.9853
G1 F133.6 X-2.163 Y3.426 B-0.98555
G0 F120 X-1.963 Y3.426
G1 F300 B--5.51445
G0 F120 X-2.596 Y3.426
G0 X-2.356 Y-.662
G1 F300 B-0.98555
G1 F115.6 X-1.692 Y-.659 B-0.98636
G1 F135.7 X-1.028 Y-.657 B-0.98705
G1 F148.5 X-.38 Y-.603 B-0.98767
G1 F147.1 X0.266 Y-.447 B-0.98831
G1 F143.5 X0.578 Y-.317 B-0.98864
G1 F137.6 X1.15 Y0.068 B-0.98935
G1 F133 X1.398 Y0.342 B-0.98974
G1 F128.5 X1.611 Y0.752 B-0.99025
G1 F125.5 X1.691 Y0.994 B-0.99053
G1 F125 X1.77 Y1.569 B-0.99119
G1 F123.5 X1.748 Y2.045 B-0.99173
G1 F122.4 X1.654 Y2.472 B-0.99224
G1 F122 X1.474 Y2.852 B-0.99272
G1 F122.4 X1.25 Y3.131 B-0.99313
G1 F125.3 X1.032 Y3.319 B-0.99346
G1 F129.6 X0.623 Y3.549 B-0.99397
G1 F134.5 X0.037 Y3.74 B-0.99462
G1 F141.5 X-.753 Y3.827 B-0.99541
G1 F147.1 X-2.162 Y3.832 B-0.99676
G1 F133.6 X-2.867 Y3.778 B-0.99751
G1 F124.5 X-2.869 Y-0.056 B-1.00185
G1 F116.7 X-2.826 Y-.46 B-1.00234
G1 F116.3 X-2.867 Y-.783 B-1.00274
G1 F127.1 X-2.869 Y-3.805 B-1.00609
G1 F127.7 X-2.399 Y-3.805 B-1.00661
G1 F127.1 X-2.398 Y-.823 B-1.00992
G1 F116.3 X-2.356 Y-.662 B-1.01012
G0 F120 X-2.156 Y-.662
G1 F300 B--5.48988
G0 F120 X-2.676 Y-.662
G0 X-2.675 Y2.962
G0 X-3.77 Y2.962
G0 X-4.863 Y2.05
G0 X-7.951 Y2.466
G0 X-8.039 Y3.4
G1 F300 B-1.01012
G1 F142.2 X-7.57 Y3.5 B-1.0106
G1 F143.5 X-7.142 Y3.521 B-1.01102
G1 F142.9 X-6.337 Y3.438 B-1.01182
G1 F141.5 X-5.642 Y3.266 B-1.01253
G1 F140.2 X-5.38 Y3.168 B-1.01281
G1 X-5.234 Y3.576 B-1.01325
G1 F138.2 X-5.806 Y3.767 B-1.01386
G1 F137.6 X-6.69 Y3.916 B-1.01478
G1 F139.5 X-7.358 Y3.942 B-1.01546
G1 F140.8 X-7.845 Y3.882 B-1.01595
G1 F140.2 X-8.221 Y3.787 B-1.01634
G1 F138.2 X-8.535 Y3.652 B-1.01669
G1 F135.4 X-8.844 Y3.456 B-1.01707
G1 F131.6 X-9.224 Y3.06 B-1.01766
G1 F127.1 X-9.38 Y2.756 B-1.01804
G1 F125.3 X-9.491 Y2.198 B-1.01868
G1 F126.1 X-9.447 Y1.604 B-1.01935
G1 F125.8 X-9.303 Y1.19 B-1.01984
G1 X-9.013 Y0.77 B-1.02041
G1 F127.7 X-8.77 Y0.547 B-1.02078
G1 F129.3 X-8.155 Y0.154 B-1.02157
G1 F132.7 X-7.026 Y-.271 B-1.02285
G1 F131.6 X-6.294 Y-.61 B-1.02372
G1 F127.9 X-5.939 Y-.86 B-1.0242
G1 F126.1 X-5.603 Y-1.288 B-1.02481
G1 F127.1 X-5.485 Y-1.745 B-1.02533
G1 F129.3 X-5.485 Y-2.188 B-1.02581
G1 F131.3 X-5.627 Y-2.65 B-1.02633
G1 F136.4 X-5.94 Y-3.054 B-1.02686
G1 F142.9 X-6.35 Y-3.311 B-1.02734
G1 F147.8 X-6.661 Y-3.42 B-1.02765
G1 F146.3 X-7.082 Y-3.504 B-1.02807
G1 F144.2 X-7.815 Y-3.533 B-1.02879
G1 F143.2 X-8.322 Y-3.491 B-1.02929
G1 F140.8 X-9.022 Y-3.365 B-1.03
G1 F138.2 X-9.621 Y-3.176 B-1.03064
G1 F137 X-9.621 Y-3.628 B-1.03111
G1 F136.4 X-9.304 Y-3.743 B-1.03145
G1 F137.6 X-8.618 Y-3.88 B-1.03217
G1 F141.2 X-7.82 Y-3.951 B-1.03297
G1 F143.5 X-6.984 Y-3.912 B-1.03379
G1 F144.2 X-6.302 Y-3.736 B-1.03448
G1 F142.2 X-5.88 Y-3.533 B-1.03495
G1 F139.5 X-5.645 Y-3.367 B-1.03524
G1 F135.1 X-5.321 Y-3.015 B-1.03574
G1 F129.6 X-5.129 Y-2.656 B-1.03618
G1 F127.7 X-5.043 Y-2.375 B-1.03651
G1 F126.6 X-5 Y-1.989 B-1.03694
G1 F124.7 X-5.071 Y-1.339 B-1.03768
G1 F123 X-5.222 Y-.973 B-1.03813
G1 F124.7 X-5.638 Y-.496 B-1.03885
G1 F127.7 X-6.038 Y-.221 B-1.03939
G1 F130.4 X-6.677 Y0.068 B-1.04014
G1 F133.3 X-7.68 Y0.45 B-1.04128
G1 F132.2 X-8.407 Y0.85 B-1.04217
G1 F130.2 X-8.794 Y1.245 B-1.04277
G1 F128.2 X-8.983 Y1.702 B-1.04331
G1 F127.1 X-9.017 Y2.265 B-1.04394
G1 F127.7 X-8.889 Y2.706 B-1.04444
G1 F131 X-8.739 Y2.934 B-1.04474
G1 F136.4 X-8.446 Y3.201 B-1.04515
G1 F139.5 X-8.039 Y3.4 B-1.0456
G0 F120 X-7.844 Y3.441
G1 F300 B--5.4544
G0 F120 X-9.005 Y2.962
G0 X-8.718 Y3.298
G0 X-7.951 Y2.466
G0 X-4.863 Y2.05
G0 X-3.758 Y4.691
G0 X-.721 Y4.697
G0 X0.211 Y4.612
G0 X0.828 Y4.419
G0 X3.042 Y3.298
G0 X9.135 Y0.6
G1 F300 B-1.0456
G1 F116.1 X9.088 Y0.39 B-1.04587
G1 F106.4 X4.456 Y0.39 B-1.05201
G1 F116.1 X4.409 Y0.6 B-1.05227
G1 F127.7 X4.409 Y3.801 B-1.05581
G1 X3.939 Y3.801 B-1.05633
G1 X3.939 Y0.6 B-1.05987
G1 F116.1 X3.986 Y0.18 B-1.06038
G1 F115.6 X3.941 Y-.159 B-1.0608
G1 F127.1 X3.939 Y-3.805 B-1.06484
G1 F127.7 X4.409 Y-3.805 B-1.06536
G1 F127.1 X4.41 Y-.199 B-1.06936
G1 F115.6 X4.456 Y-0.03 B-1.06958
G1 F106.4 X9.088 Y-0.03 B-1.07572
G1 F115.8 X9.134 Y-.199 B-1.07593
G1 F127.1 X9.135 Y-3.805 B-1.07994
G1 F127.7 X9.605 Y-3.805 B-1.08046
G1 F127.1 X9.604 Y-.159 B-1.0845
G1 F115.8 X9.558 Y0.18 B-1.08492
G1 F116.1 X9.605 Y0.6 B-1.08543
G1 F127.7 X9.605 Y3.801 B-1.08897
G1 X9.135 Y3.801 B-1.08949
G1 X9.135 Y0.6 B-1.09303
G0 F120 X9.092 Y0.405
G1 F300 B--5.40697
;MESH:NONMESH
G0 F600 X9.092 Y0.405 Z1
G0 F120 X9.362 Y0.22
G0 X4.208 Y0.162
G0 X4.137 Y3.426
G0 X-2.596 Y3.426
G0 X-2.163 Y3.426
;TIME_ELAPSED:686.291281
;LAYER:7
;TYPE:WALL-OUTER
;MESH:Part Studio 1-2.stl
G1 F300 B-1.09303
G1 F147.8 X-.959 Y3.423 B-1.09418
G1 F146.7 X-.334 Y3.374 B-1.09478
G1 F142.2 X0.174 Y3.252 B-1.0953
G1 F133.6 X0.709 Y2.977 B-1.09593
G1 F126.6 X0.9 Y2.804 B-1.09622
G1 F123.7 X1.178 Y2.334 B-1.09684
G1 F122.4 X1.268 Y1.945 B-1.0973
G1 F124 X1.233 Y1.133 B-1.09823
G1 F127.7 X1.131 Y0.814 B-1.0986
G1 F131.9 X0.897 Y0.432 B-1.09908
G1 F138.6 X0.406 Y0.056 B-1.09971
G1 F145.6 X0.078 Y-0.08 B-1.10005
G1 F147.1 X-.454 Y-.204 B-1.10057
G1 F147.4 X-1.046 Y-.254 B-1.10114
G1 F124.7 X-2.356 Y-.258 B-1.10262
G1 F116.7 X-2.399 Y-0.056 B-1.10287
G1 F124.5 X-2.398 Y3.366 B-1.10675
G1 F133.6 X-2.163 Y3.426 B-1.10701
G0 F120 X-1.963 Y3.426
G1 F300 B--5.39299
G0 F120 X-2.596 Y3.426
G0 X-2.356 Y-.662
G1 F300 B-1.10701
G1 F115.6 X-1.688 Y-.66 B-1.10782
G1 F135.4 X-1.02 Y-.658 B-1.10852
G1 F146 X-.254 Y-.593 B-1.10926
G1 F144.6 X0.334 Y-.425 B-1.10986
G1 F143.2 X0.674 Y-.274 B-1.11023
G1 F138.9 X0.966 Y-0.086 B-1.11058
G1 F135.1 X1.254 Y0.165 B-1.11098
G1 F131.3 X1.514 Y0.538 B-1.11147
G1 F127.1 X1.695 Y1.006 B-1.11202
G1 F123.2 X1.764 Y1.569 B-1.11267
G1 F122 X1.751 Y2.031 B-1.11321
G1 X1.626 Y2.544 B-1.11382
G1 F120.5 X1.486 Y2.825 B-1.11419
G1 F122 X1.252 Y3.133 B-1.11463
G1 F126.1 X1.032 Y3.319 B-1.11496
G1 F129 X0.622 Y3.547 B-1.11547
G1 F134.5 X0.037 Y3.742 B-1.11611
G1 F141.5 X-.753 Y3.825 B-1.11691
G1 F146.3 X-2.163 Y3.832 B-1.11827
G1 F133.6 X-2.867 Y3.778 B-1.11901
G1 F124.5 X-2.869 Y-0.056 B-1.12336
G1 F116.7 X-2.826 Y-.46 B-1.12385
G1 F116.3 X-2.867 Y-.783 B-1.12424
G1 F127.1 X-2.869 Y-3.805 B-1.1276
G1 F127.7 X-2.399 Y-3.805 B-1.12812
G1 F127.1 X-2.398 Y-.823 B-1.13143
G1 F116.3 X-2.356 Y-.662 B-1.13163
G0 F120 X-2.156 Y-.662
G1 F300 B--5.36837
G0 F120 X-2.676 Y-.662
G0 X-2.675 Y2.885
G0 X-3.77 Y2.885
G0 X-4.863 Y2.05
G0 X-7.932 Y2.475
G0 X-8.029 Y3.404
G1 F300 B-1.13163
G1 F142.9 X-7.565 Y3.499 B-1.13209
G1 F144.2 X-7.1 Y3.519 B-1.13255
G1 F142.9 X-6.268 Y3.426 B-1.13338
G1 F141.5 X-5.658 Y3.271 B-1.134
G1 F140.2 X-5.38 Y3.168 B-1.1343
G1 X-5.234 Y3.576 B-1.13474
G1 F138.9 X-5.878 Y3.791 B-1.13543
G1 F138.2 X-6.685 Y3.916 B-1.13626
G1 F140.2 X-7.32 Y3.937 B-1.1369
G1 F141.5 X-7.848 Y3.881 B-1.13743
G1 F140.8 X-8.18 Y3.801 B-1.13777
G1 F138.9 X-8.642 Y3.595 B-1.13829
G1 F134.5 X-8.9 Y3.409 B-1.13862
G1 F130.7 X-9.205 Y3.089 B-1.1391
G1 F126.6 X-9.415 Y2.64 B-1.13965
G1 F124.5 X-9.492 Y2.201 B-1.14015
G1 F125.3 X-9.473 Y1.793 B-1.14061
G1 X-9.328 Y1.243 B-1.14126
G1 F126.6 X-9.182 Y0.97 B-1.1416
G1 F128.2 X-8.768 Y0.547 B-1.14225
G1 F128.8 X-8.346 Y0.275 B-1.1428
G1 F131 X-7.94 Y0.073 B-1.14329
G1 F133.3 X-7.008 Y-.278 B-1.14434
G1 F131.6 X-6.289 Y-.612 B-1.14519
G1 F128.2 X-5.873 Y-.921 B-1.14576
G1 F127.1 X-5.664 Y-1.177 B-1.14613
G1 F125.8 X-5.539 Y-1.451 B-1.14647
G1 F126.6 X-5.473 Y-2.073 B-1.14717
G1 F129.9 X-5.529 Y-2.4 B-1.14753
G1 F132.7 X-5.651 Y-2.693 B-1.14786
G1 F137 X-5.925 Y-3.037 B-1.14832
G1 F142.9 X-6.349 Y-3.31 B-1.14881
G1 F147.1 X-6.659 Y-3.421 B-1.14913
G1 F145.6 X-7.082 Y-3.505 B-1.14955
G1 F144.2 X-7.917 Y-3.527 B-1.15037
G1 F142.5 X-8.785 Y-3.416 B-1.15123
G1 F140.2 X-9.624 Y-3.203 B-1.1521
G1 F139.5 X-9.624 Y-3.63 B-1.15253
G1 F137.6 X-9.304 Y-3.743 B-1.15288
G1 X-8.618 Y-3.879 B-1.1536
G1 F140.8 X-7.82 Y-3.95 B-1.1544
G1 F142.9 X-6.952 Y-3.911 B-1.15526
G1 F143.9 X-6.319 Y-3.744 B-1.1559
G1 F142.5 X-5.886 Y-3.534 B-1.15638
G1 F137.6 X-5.551 Y-3.281 B-1.15681
G1 F133.9 X-5.363 Y-3.075 B-1.1571
G1 F131 X-5.124 Y-2.656 B-1.15762
G1 F128.8 X-5.012 Y-2.191 B-1.15815
G1 F125.5 X-5.023 Y-1.559 B-1.15886
G1 F123.5 X-5.108 Y-1.218 B-1.15926
G1 X-5.35 Y-.778 B-1.15983
G1 F124.7 X-5.638 Y-.498 B-1.16029
G1 F127.4 X-6.038 Y-.221 B-1.16082
G1 F130.7 X-6.677 Y0.068 B-1.16158
G1 F132.7 X-7.709 Y0.462 B-1.16276
G1 F131.9 X-8.404 Y0.847 B-1.16361
G1 F129.3 X-8.801 Y1.245 B-1.16422
G1 F127.7 X-8.986 Y1.736 B-1.1648
G1 F127.1 X-9.013 Y2.244 B-1.16536
G1 F128.2 X-8.819 Y2.832 B-1.16604
G1 F133.3 X-8.434 Y3.21 B-1.16662
G1 F138.9 X-8.029 Y3.404 B-1.16707
G0 F120 X-7.834 Y3.444
G1 F300 B--5.33293
G0 F120 X-9.053 Y2.885
G0 X-8.588 Y3.37
G0 X-7.932 Y2.475
G0 X-4.863 Y2.05
G0 X-3.758 Y4.691
G0 X-.721 Y4.697
G0 X0.211 Y4.612
G0 X0.828 Y4.419
G0 X3.042 Y3.37
G0 X9.135 Y0.6
G1 F300 B-1.16707
G1 F116.1 X9.088 Y0.39 B-1.16733
G1 F106.4 X4.456 Y0.39 B-1.17348
G1 F116.1 X4.409 Y0.6 B-1.17374
G1 F127.7 X4.409 Y3.801 B-1.17728
G1 X3.939 Y3.801 B-1.17779
G1 X3.939 Y0.6 B-1.18133
G1 F116.1 X3.986 Y0.18 B-1.18185
G1 F115.6 X3.941 Y-.159 B-1.18226
G1 F127.1 X3.939 Y-3.805 B-1.18631
G1 F127.7 X4.409 Y-3.805 B-1.18683
G1 F127.1 X4.41 Y-.199 B-1.19083
G1 F115.6 X4.456 Y-0.03 B-1.19104
G1 F106.4 X9.088 Y-0.03 B-1.19719
G1 F115.8 X9.134 Y-.199 B-1.1974
G1 F127.1 X9.135 Y-3.805 B-1.2014
G1 F127.7 X9.605 Y-3.805 B-1.20192
G1 F127.1 X9.604 Y-.159 B-1.20597
G1 F115.8 X9.558 Y0.18 B-1.20639
G1 F116.1 X9.605 Y0.6 B-1.2069
G1 F127.7 X9.605 Y3.801 B-1.21044
G1 X9.135 Y3.801 B-1.21096
G1 X9.135 Y0.6 B-1.21449
G0 F120 X9.092 Y0.405
G1 F300 B--5.28551
;MESH:NONMESH
G0 F600 X9.092 Y0.405 Z1.1
G0 F120 X9.362 Y0.22
G0 X4.208 Y0.162
G0 X4.137 Y3.426
G0 X-2.596 Y3.426
G0 X-2.163 Y3.426
;TIME_ELAPSED:775.840905
;LAYER:8
;TYPE:WALL-OUTER
;MESH:Part Studio 1-2.stl
G1 F300 B-1.21449
G1 F147.8 X-.821 Y3.422 B-1.21577
G1 F143.5 X-.129 Y3.337 B-1.21646
G1 F136.4 X0.467 Y3.127 B-1.21711
G1 F129.6 X0.832 Y2.873 B-1.2176
G1 F124.5 X1.085 Y2.536 B-1.21808
G1 F124 X1.194 Y2.27 B-1.2184
G1 F124.5 X1.285 Y1.601 B-1.21917
G1 F125 X1.229 Y1.104 B-1.21973
G1 F127.7 X1.117 Y0.775 B-1.22012
G1 F133.3 X0.86 Y0.387 B-1.22061
G1 F141.5 X0.643 Y0.204 B-1.22089
G1 F147.1 X0.045 Y-0.09 B-1.22153
G1 F148.9 X-.427 Y-.196 B-1.22199
G1 F148.5 X-1.046 Y-.254 B-1.22258
G1 F124.5 X-2.356 Y-.258 B-1.22406
G1 F116.7 X-2.399 Y-0.056 B-1.22431
G1 F124.5 X-2.398 Y3.366 B-1.22819
G1 F133.6 X-2.163 Y3.426 B-1.22845
G0 F120 X-1.963 Y3.426
G1 F300 B--5.27155
G0 F120 X-2.596 Y3.426
G0 X-2.356 Y-.662
G1 F300 B-1.22845
G1 F114.9 X-1.544 Y-.657 B-1.22945
G1 F132.7 X-.732 Y-.652 B-1.23031
G1 F144.9 X0.081 Y-.505 B-1.23111
G1 F143.5 X0.641 Y-.285 B-1.2317
G1 F139.2 X1.159 Y0.07 B-1.23234
G1 F133.9 X1.41 Y0.369 B-1.23275
G1 F129.3 X1.563 Y0.633 B-1.23308
G1 F127.1 X1.692 Y0.998 B-1.23351
G1 F125.3 X1.77 Y1.57 B-1.23416
G1 F122.2 X1.747 Y2.026 B-1.23469
G1 F121 X1.575 Y2.66 B-1.23546
G1 F121.7 X1.38 Y2.98 B-1.23589
G1 F124 X1.152 Y3.227 B-1.23627
G1 F129.3 X0.62 Y3.552 B-1.23695
G1 F135.4 X0.037 Y3.741 B-1.23759
G1 F142.2 X-.753 Y3.827 B-1.23838
G1 F147.1 X-2.163 Y3.832 B-1.23973
G1 F133.6 X-2.867 Y3.778 B-1.24048
G1 F124.5 X-2.869 Y-0.056 B-1.24482
G1 F116.7 X-2.826 Y-.46 B-1.24532
G1 F116.3 X-2.867 Y-.783 B-1.24571
G1 F127.1 X-2.869 Y-3.805 B-1.24906
G1 F127.7 X-2.399 Y-3.805 B-1.24958
G1 F127.1 X-2.398 Y-.823 B-1.25289
G1 F116.3 X-2.356 Y-.662 B-1.2531
G0 F120 X-2.156 Y-.661
G1 F300 B--5.2469
G0 F120 X-2.676 Y-.661
G0 X-2.675 Y2.903
G0 X-3.77 Y2.903
G0 X-4.863 Y2.05
G0 X-8.012 Y2.412
G0 X-8.231 Y3.324
G1 F300 B-1.2531
G1 F140.2 X-7.821 Y3.455 B-1.25353
G1 F142.2 X-7.086 Y3.517 B-1.25426
G1 F142.9 X-6.273 Y3.428 B-1.25507
G1 F141.5 X-5.658 Y3.271 B-1.2557
G1 F140.2 X-5.38 Y3.168 B-1.256
G1 X-5.234 Y3.576 B-1.25644
G1 F138.9 X-5.88 Y3.792 B-1.25713
G1 F138.2 X-6.685 Y3.916 B-1.25796
G1 F138.9 X-7.311 Y3.933 B-1.25859
G1 F140.5 X-7.883 Y3.875 B-1.25917
G1 F140.2 X-8.395 Y3.723 B-1.25971
G1 F136.4 X-8.935 Y3.386 B-1.26037
G1 F131.6 X-9.208 Y3.087 B-1.2608
G1 F128.2 X-9.421 Y2.643 B-1.26134
G1 F126.6 X-9.494 Y2.201 B-1.26184
G1 F126.1 X-9.474 Y1.791 B-1.2623
G1 F125.3 X-9.387 Y1.389 B-1.26277
G1 F126.6 X-9.183 Y0.97 B-1.26329
G1 F128.5 X-8.768 Y0.547 B-1.26394
G1 F129 X-8.346 Y0.275 B-1.26448
G1 F130.7 X-7.941 Y0.074 B-1.26497
G1 F133.9 X-6.77 Y-.366 B-1.26629
G1 F132.5 X-6.079 Y-.753 B-1.26713
G1 F128.5 X-5.753 Y-1.052 B-1.26762
G1 F126.6 X-5.587 Y-1.322 B-1.26797
G1 F126.1 X-5.483 Y-1.713 B-1.26843
G1 F127.7 X-5.473 Y-2.069 B-1.26882
G1 F129.9 X-5.54 Y-2.436 B-1.26922
G1 F133.9 X-5.788 Y-2.898 B-1.26978
G1 F139.2 X-6.082 Y-3.158 B-1.27017
G1 F144.2 X-6.656 Y-3.421 B-1.27079
G1 F147.4 X-7.109 Y-3.502 B-1.27123
G1 F147.1 X-7.725 Y-3.535 B-1.27182
G1 F144.2 X-8.744 Y-3.438 B-1.27283
G1 F140.8 X-9.624 Y-3.186 B-1.27374
G1 F138.6 X-9.624 Y-3.629 B-1.27419
G1 F137.6 X-9.305 Y-3.744 B-1.27454
G1 F138.6 X-8.608 Y-3.884 B-1.27527
G1 F141.5 X-8.043 Y-3.928 B-1.27583
G1 F143.5 X-7.293 Y-3.932 B-1.27657
G1 F145.6 X-6.544 Y-3.816 B-1.2773
G1 F143.5 X-6.06 Y-3.63 B-1.27781
G1 F139.5 X-5.732 Y-3.431 B-1.2782
G1 F137.3 X-5.453 Y-3.183 B-1.27858
G1 F132.5 X-5.181 Y-2.776 B-1.2791
G1 F128.2 X-5.043 Y-2.374 B-1.27957
G1 F127.1 X-4.997 Y-1.983 B-1.28001
G1 F125.8 X-5.021 Y-1.565 B-1.28048
G1 F124.2 X-5.207 Y-1 B-1.28115
G1 X-5.494 Y-.625 B-1.28169
G1 F125.5 X-5.704 Y-.448 B-1.282
G1 F128.2 X-6.221 Y-.138 B-1.28266
G1 F132.7 X-6.676 Y0.073 B-1.2832
G1 F133.9 X-7.712 Y0.465 B-1.28436
G1 F131.9 X-8.399 Y0.843 B-1.2852
G1 F129.6 X-8.804 Y1.248 B-1.28582
G1 F128.2 X-8.982 Y1.703 B-1.28636
G1 F127.1 X-9.017 Y2.181 B-1.28689
G1 F126.6 X-8.967 Y2.505 B-1.28726
G1 F128.2 X-8.82 Y2.831 B-1.28765
G1 F131.6 X-8.624 Y3.062 B-1.28798
G1 F136.4 X-8.231 Y3.324 B-1.28847
G0 F120 X-8.041 Y3.384
G1 F300 B--5.21153
G0 F120 X-9.044 Y2.903
G0 X-8.757 Y3.227
G0 X-8.012 Y2.412
G0 X-4.863 Y2.05
G0 X-3.758 Y4.691
G0 X-.721 Y4.697
G0 X0.211 Y4.612
G0 X0.838 Y4.416
G0 X3.042 Y3.227
G0 X9.135 Y0.6
G1 F300 B-1.28847
G1 F116.1 X9.088 Y0.39 B-1.28873
G1 F106.4 X4.456 Y0.39 B-1.29487
G1 F116.1 X4.409 Y0.6 B-1.29513
G1 F127.7 X4.409 Y3.801 B-1.29867
G1 X3.939 Y3.801 B-1.29919
G1 X3.939 Y0.6 B-1.30273
G1 F116.1 X3.986 Y0.18 B-1.30324
G1 F115.6 X3.941 Y-.159 B-1.30366
G1 F127.1 X3.939 Y-3.805 B-1.3077
G1 F127.7 X4.409 Y-3.805 B-1.30822
G1 F127.1 X4.41 Y-.199 B-1.31223
G1 F115.6 X4.456 Y-0.03 B-1.31244
G1 F106.4 X9.088 Y-0.03 B-1.31858
G1 F115.8 X9.134 Y-.199 B-1.3188
G1 F127.1 X9.135 Y-3.805 B-1.3228
G1 F127.7 X9.605 Y-3.805 B-1.32332
G1 F127.1 X9.604 Y-.159 B-1.32736
G1 F115.8 X9.558 Y0.18 B-1.32778
G1 F116.1 X9.605 Y0.6 B-1.32829
G1 F127.7 X9.605 Y3.801 B-1.33183
G1 X9.135 Y3.801 B-1.33235
G1 X9.135 Y0.6 B-1.33589
G0 F120 X9.092 Y0.405
G1 F300 B--5.16411
;MESH:NONMESH
G0 F600 X9.092 Y0.405 Z1.2
G0 F120 X9.362 Y0.22
G0 X4.208 Y0.162
G0 X4.137 Y3.423
G0 X-2.596 Y3.423
G0 X-2.163 Y3.423
;TIME_ELAPSED:865.212543
;LAYER:9
;TYPE:WALL-OUTER
;MESH:Part Studio 1-2.stl
G1 F300 B-1.33589
G1 F147.1 X-.765 Y3.417 B-1.33723
G1 F142.9 X-0.056 Y3.325 B-1.33794
G1 F137.3 X0.44 Y3.145 B-1.33848
G1 F129 X0.929 Y2.768 B-1.33915
G1 F123.2 X1.152 Y2.396 B-1.33965
G1 F123.7 X1.269 Y1.905 B-1.34022
G1 F125.5 X1.258 Y1.297 B-1.34091
G1 F127.1 X1.129 Y0.804 B-1.34147
G1 F132.2 X0.975 Y0.534 B-1.34181
G1 F137.9 X0.685 Y0.23 B-1.34224
G1 F143.9 X0.061 Y-0.085 B-1.34292
G1 F147.8 X-.449 Y-.202 B-1.34342
G1 X-1.046 Y-.255 B-1.34399
G1 F124.5 X-2.356 Y-.258 B-1.34548
G1 F116.7 X-2.399 Y-0.056 B-1.34573
G1 F124.5 X-2.398 Y3.363 B-1.3496
G1 F133.3 X-2.163 Y3.423 B-1.34986
G0 F120 X-1.963 Y3.423
G1 F300 B--5.15014
G0 F120 X-2.596 Y3.423
G0 X-2.356 Y-.662
G1 F300 B-1.34986
G1 F115.4 X-1.638 Y-.66 B-1.35074
G1 F133.9 X-.92 Y-.659 B-1.35149
G1 F144.9 X-.152 Y-.567 B-1.35225
G1 F142.9 X0.468 Y-.368 B-1.35289
G1 F140.8 X0.971 Y-0.09 B-1.35346
G1 F135.4 X1.404 Y0.352 B-1.35411
G1 F129.9 X1.549 Y0.598 B-1.35442
G1 F126.6 X1.689 Y1 B-1.35489
G1 F123 X1.765 Y1.567 B-1.35555
G1 F121.7 X1.735 Y2.122 B-1.35619
G1 F121.2 X1.575 Y2.665 B-1.35685
G1 X1.37 Y2.996 B-1.35731
G1 F123.2 X1.137 Y3.235 B-1.35769
G1 F129.3 X0.618 Y3.555 B-1.35835
G1 F137 X0.038 Y3.744 B-1.35898
G1 F142.9 X-.771 Y3.828 B-1.35978
G1 F146.7 X-2.162 Y3.831 B-1.36112
G1 F133.3 X-2.867 Y3.777 B-1.36187
G1 F124.5 X-2.869 Y-0.056 B-1.36621
G1 F116.7 X-2.826 Y-.46 B-1.36671
G1 F116.3 X-2.867 Y-.783 B-1.3671
G1 F127.1 X-2.869 Y-3.805 B-1.37045
G1 F127.7 X-2.399 Y-3.805 B-1.37097
G1 F127.1 X-2.398 Y-.823 B-1.37428
G1 F116.3 X-2.356 Y-.662 B-1.37449
G0 F120 X-2.156 Y-.662
G1 F300 B--5.12551
G0 F120 X-2.676 Y-.662
G0 X-2.675 Y2.952
G0 X-3.77 Y2.952
G0 X-4.863 Y2.05
G0 X-8.019 Y2.405
G0 X-8.136 Y3.365
G1 F300 B-1.37449
G1 F144.6 X-7.57 Y3.498 B-1.37505
G1 F144.9 X-7.126 Y3.52 B-1.37549
G1 F143.2 X-6.337 Y3.438 B-1.37627
G1 F141.5 X-5.642 Y3.266 B-1.37698
G1 F140.2 X-5.38 Y3.168 B-1.37726
G1 X-5.234 Y3.576 B-1.3777
G1 F138.2 X-5.806 Y3.767 B-1.37831
G1 F137.6 X-6.685 Y3.916 B-1.37923
G1 F140.2 X-7.299 Y3.937 B-1.37985
G1 F140.8 X-7.875 Y3.872 B-1.38043
G1 F139.5 X-8.197 Y3.792 B-1.38076
G1 F136.4 X-8.711 Y3.548 B-1.38135
G1 F133.3 X-8.941 Y3.383 B-1.38165
G1 F131.6 X-9.217 Y3.07 B-1.3821
G1 F127.9 X-9.354 Y2.826 B-1.38241
G1 F126.1 X-9.454 Y2.513 B-1.38277
G1 X-9.494 Y2.193 B-1.38314
G1 F126.6 X-9.465 Y1.703 B-1.38368
G1 F125.5 X-9.391 Y1.416 B-1.38402
G1 F126.1 X-9.213 Y1.016 B-1.38451
G1 F127.1 X-9.059 Y0.812 B-1.38479
G1 F127.7 X-8.782 Y0.553 B-1.38521
G1 F129.3 X-8.357 Y0.279 B-1.38576
G1 F131.6 X-7.801 Y0.019 B-1.38642
G1 F134.5 X-6.987 Y-.283 B-1.38733
G1 X-6.282 Y-.607 B-1.38814
G1 F129.3 X-5.764 Y-1.038 B-1.38888
G1 F124.5 X-5.592 Y-1.306 B-1.38924
G1 X-5.497 Y-1.63 B-1.38962
G1 F126.1 X-5.469 Y-1.994 B-1.39003
G1 F128.2 X-5.51 Y-2.342 B-1.39041
G1 F131.3 X-5.642 Y-2.68 B-1.3908
G1 F134.8 X-5.779 Y-2.884 B-1.39106
G1 F139.9 X-6.084 Y-3.165 B-1.39148
G1 F145.6 X-6.678 Y-3.424 B-1.39211
G1 F146.3 X-7.081 Y-3.504 B-1.3925
G1 F145.6 X-7.997 Y-3.537 B-1.39339
G1 F142.9 X-8.858 Y-3.4 B-1.39425
G1 F139.5 X-9.624 Y-3.203 B-1.39505
G1 F139.2 X-9.624 Y-3.63 B-1.39549
G1 F137.6 X-9.304 Y-3.743 B-1.39583
G1 X-8.618 Y-3.88 B-1.39655
G1 F140.2 X-7.901 Y-3.954 B-1.39728
G1 F142.5 X-6.956 Y-3.908 B-1.39821
G1 F143.2 X-6.326 Y-3.741 B-1.39885
G1 F140.8 X-5.794 Y-3.476 B-1.39945
G1 F137.6 X-5.555 Y-3.285 B-1.39976
G1 F133.9 X-5.307 Y-3 B-1.40016
G1 F130.4 X-5.127 Y-2.657 B-1.40058
G1 F128.8 X-5.042 Y-2.375 B-1.4009
G1 F127.7 X-4.997 Y-1.983 B-1.40134
G1 F126.1 X-5.019 Y-1.571 B-1.4018
G1 F124.5 X-5.153 Y-1.103 B-1.40235
G1 F123.5 X-5.307 Y-.839 B-1.4027
G1 F124 X-5.706 Y-.45 B-1.40334
G1 F128.2 X-6.209 Y-.141 B-1.40399
G1 F132.7 X-6.677 Y0.07 B-1.40453
G1 F133.9 X-7.676 Y0.451 B-1.40566
G1 F133.3 X-8.295 Y0.773 B-1.4064
G1 F131 X-8.544 Y0.956 B-1.40673
G1 F128.8 X-8.811 Y1.26 B-1.40717
G1 F127.4 X-8.998 Y1.775 B-1.40778
G1 F126.6 X-9.017 Y2.182 B-1.40823
G1 F127.1 X-8.968 Y2.508 B-1.4086
G1 F128.8 X-8.829 Y2.818 B-1.40897
G1 F131.6 X-8.628 Y3.059 B-1.40931
G1 F138.2 X-8.136 Y3.365 B-1.4099
G0 F120 X-7.942 Y3.41
G1 F300 B--5.0901
G0 F120 X-9.021 Y2.952
G0 X-8.758 Y3.229
G0 X-8.019 Y2.405
G0 X-4.863 Y2.05
G0 X-3.758 Y4.691
G0 X-.721 Y4.697
G0 X0.211 Y4.612
G0 X0.837 Y4.417
G0 X3.042 Y3.229
G0 X9.135 Y0.6
G1 F300 B-1.4099
G1 F116.1 X9.088 Y0.39 B-1.41016
G1 F106.4 X4.456 Y0.39 B-1.4163
G1 F116.1 X4.409 Y0.6 B-1.41656
G1 F127.7 X4.409 Y3.801 B-1.4201
G1 X3.939 Y3.801 B-1.42062
G1 X3.939 Y0.6 B-1.42416
G1 F116.1 X3.986 Y0.18 B-1.42467
G1 F115.6 X3.941 Y-.159 B-1.42509
G1 F127.1 X3.939 Y-3.805 B-1.42914
G1 F127.7 X4.409 Y-3.805 B-1.42966
G1 F127.1 X4.41 Y-.199 B-1.43366
G1 F115.6 X4.456 Y-0.03 B-1.43387
G1 F106.4 X9.088 Y-0.03 B-1.44001
G1 F115.8 X9.134 Y-.199 B-1.44023
G1 F127.1 X9.135 Y-3.805 B-1.44423
G1 F127.7 X9.605 Y-3.805 B-1.44475
G1 F127.1 X9.604 Y-.159 B-1.4488
G1 F115.8 X9.558 Y0.18 B-1.44921
G1 F116.1 X9.605 Y0.6 B-1.44973
G1 F127.7 X9.605 Y3.801 B-1.45326
G1 X9.135 Y3.801 B-1.45378
G1 X9.135 Y0.6 B-1.45732
G0 F120 X9.092 Y0.405
G1 F300 B--5.04268
;MESH:NONMESH
G0 F600 X9.092 Y0.405 Z1.3
G0 F120 X9.362 Y0.22
G0 X4.208 Y0.162
G0 X4.137 Y3.423
G0 X-2.596 Y3.423
G0 X-2.163 Y3.423
;TIME_ELAPSED:954.665596
;LAYER:10
;TYPE:WALL-OUTER
;MESH:Part Studio 1-2.stl
G1 F300 B-1.45732
G1 F147.1 X-.787 Y3.42 B-1.45864
G1 F146 X-.316 Y3.37 B-1.4591
G1 F141.5 X0.221 Y3.236 B-1.45965
G1 F135.7 X0.578 Y3.06 B-1.46006
G1 F130.4 X0.88 Y2.819 B-1.46048
G1 F124.5 X1.119 Y2.476 B-1.46096
G1 F122.4 X1.258 Y2.023 B-1.4615
G1 F123.7 X1.285 Y1.575 B-1.46201
G1 F125.8 X1.179 Y0.932 B-1.46274
G1 F130.7 X0.958 Y0.512 B-1.46326
G1 F138.9 X0.615 Y0.18 B-1.46374
G1 F146.3 X0.22 Y-0.028 B-1.46417
G1 F148.5 X-.421 Y-.196 B-1.4648
G1 X-1.046 Y-.253 B-1.4654
G1 F135.7 X-1.701 Y-.256 B-1.46608
G1 F115.6 X-2.356 Y-.258 B-1.46688
G1 F116.7 X-2.399 Y-0.056 B-1.46713
G1 F124.5 X-2.398 Y3.363 B-1.471
G1 F133.3 X-2.163 Y3.423 B-1.47126
G0 F120 X-1.963 Y3.423
G1 F300 B--5.02874
G0 F120 X-2.596 Y3.423
G0 X-2.356 Y-.662
G1 F300 B-1.47126
G1 F114.9 X-1.537 Y-.655 B-1.47226
G1 F133 X-.718 Y-.648 B-1.47313
G1 F144.2 X-0.043 Y-.533 B-1.4738
G1 F143.9 X0.565 Y-.328 B-1.47443
G1 F140.8 X0.981 Y-0.075 B-1.47492
G1 F135.7 X1.263 Y0.179 B-1.47531
G1 F131 X1.488 Y0.492 B-1.47573
G1 F127.7 X1.615 Y0.753 B-1.47605
G1 F125 X1.73 Y1.198 B-1.47657
G1 F123.5 X1.77 Y1.562 B-1.47699
G1 F123.7 X1.738 Y2.115 B-1.47762
G1 F122.4 X1.577 Y2.659 B-1.47827
G1 F122 X1.373 Y2.994 B-1.47873
G1 F124.2 X1.022 Y3.324 B-1.47927
G1 F131.3 X0.423 Y3.627 B-1.47999
G1 F138.9 X-.126 Y3.762 B-1.48057
G1 F144.2 X-.771 Y3.829 B-1.4812
G1 F147.1 X-2.163 Y3.831 B-1.48254
G1 F133.3 X-2.867 Y3.777 B-1.48328
G1 F124.5 X-2.869 Y-0.056 B-1.48763
G1 F116.7 X-2.826 Y-.46 B-1.48812
G1 F116.3 X-2.867 Y-.783 B-1.48852
G1 F127.1 X-2.869 Y-3.805 B-1.49187
G1 F127.7 X-2.399 Y-3.805 B-1.49239
G1 F127.1 X-2.398 Y-.823 B-1.4957
G1 F116.3 X-2.356 Y-.662 B-1.4959
G0 F120 X-2.156 Y-.661
G1 F300 B--5.0041
G0 F120 X-2.676 Y-.661
G0 X-2.675 Y2.935
G0 X-3.77 Y2.935
G0 X-4.858 Y2.062
G0 X-8.014 Y2.413
G0 X-8.029 Y3.4
G1 F300 B-1.4959
G1 F142.9 X-7.564 Y3.499 B-1.49637
G1 F144.2 X-7.073 Y3.519 B-1.49685
G1 F143.5 X-6.345 Y3.441 B-1.49757
G1 F140.8 X-5.891 Y3.343 B-1.49803
G1 F138.6 X-5.384 Y3.166 B-1.49858
G1 X-5.237 Y3.574 B-1.49902
G1 F138.2 X-5.806 Y3.769 B-1.49964
G1 F138.6 X-6.685 Y3.917 B-1.50054
G1 F140.5 X-7.276 Y3.937 B-1.50114
G1 F141.5 X-7.873 Y3.877 B-1.50174
G1 F140.2 X-8.283 Y3.764 B-1.50216
G1 F137.6 X-8.629 Y3.602 B-1.50256
G1 F135.1 X-8.894 Y3.424 B-1.50289
G1 F130.7 X-9.246 Y3.023 B-1.50346
G1 F126.6 X-9.376 Y2.77 B-1.50378
G1 F125 X-9.475 Y2.362 B-1.50426
G1 X-9.478 Y1.799 B-1.50489
G1 F125.5 X-9.414 Y1.476 B-1.50526
G1 F126.6 X-9.216 Y1.022 B-1.50581
G1 F126.3 X-9.017 Y0.769 B-1.50617
G1 F127.1 X-8.773 Y0.547 B-1.50654
G1 F129.9 X-8.348 Y0.273 B-1.50709
G1 F130.7 X-7.93 Y0.07 B-1.50759
G1 F132.7 X-7.006 Y-.279 B-1.50864
G1 F133.9 X-6.33 Y-.591 B-1.50942
G1 F129.3 X-5.825 Y-.965 B-1.51011
G1 F124 X-5.586 Y-1.331 B-1.51061
G1 X-5.475 Y-1.798 B-1.51115
G1 F126.6 X-5.477 Y-2.144 B-1.51154
G1 F129.3 X-5.561 Y-2.501 B-1.51194
G1 F132.7 X-5.68 Y-2.755 B-1.51224
G1 F137 X-5.978 Y-3.082 B-1.51269
G1 F142.9 X-6.482 Y-3.364 B-1.51326
G1 F146.3 X-6.98 Y-3.487 B-1.51376
G1 F146.7 X-7.651 Y-3.528 B-1.5144
G1 F143.5 X-8.605 Y-3.45 B-1.51534
G1 F139.5 X-9.252 Y-3.307 B-1.51601
G1 F138.9 X-9.625 Y-3.178 B-1.51642
G1 F139.5 X-9.625 Y-3.63 B-1.51687
G1 F138.6 X-9.305 Y-3.745 B-1.51722
G1 X-8.607 Y-3.883 B-1.51794
G1 F140.2 X-8.047 Y-3.927 B-1.51851
G1 F142.5 X-7.32 Y-3.932 B-1.51923
G1 F144.9 X-6.826 Y-3.877 B-1.51971
G1 F145.6 X-6.33 Y-3.748 B-1.52021
G1 F142.9 X-5.726 Y-3.429 B-1.52088
G1 F137 X-5.437 Y-3.166 B-1.52129
G1 F132.7 X-5.238 Y-2.896 B-1.52164
G1 F129.9 X-5.08 Y-2.519 B-1.52209
G1 F127.7 X-5.01 Y-2.198 B-1.52245
G1 F126.6 X-4.999 Y-1.757 B-1.52294
G1 F124.5 X-5.051 Y-1.422 B-1.52333
G1 F122.7 X-5.154 Y-1.101 B-1.52371
G1 F124 X-5.479 Y-.636 B-1.52436
G1 F125.5 X-5.721 Y-.437 B-1.52471
G1 F128.2 X-6.22 Y-.137 B-1.52535
G1 F131.9 X-6.677 Y0.069 B-1.52589
G1 F133.3 X-7.511 Y0.387 B-1.52683
G1 X-8.002 Y0.605 B-1.5274
G1 F131.3 X-8.452 Y0.882 B-1.52797
G1 F128.8 X-8.811 Y1.263 B-1.52854
G1 F128.2 X-8.913 Y1.47 B-1.5288
G1 F127.4 X-9.006 Y1.87 B-1.52925
G1 F127.1 X-8.971 Y2.489 B-1.52994
G1 F129.3 X-8.814 Y2.833 B-1.53035
G1 F132.2 X-8.608 Y3.079 B-1.53069
G1 F137 X-8.268 Y3.303 B-1.53111
G1 F140.8 X-8.029 Y3.4 B-1.53137
G0 F120 X-7.834 Y3.441
G1 F300 B--4.96863
G0 F120 X-9.024 Y2.935
G0 X-8.763 Y3.222
G0 X-8.014 Y2.413
G0 X-4.858 Y2.062
G0 X-3.758 Y4.691
G0 X-.721 Y4.697
G0 X0.012 Y4.631
G0 X0.715 Y4.469
G0 X0.945 Y4.36
G0 X3.042 Y3.222
G0 X9.135 Y0.6
G1 F300 B-1.53137
G1 F116.1 X9.088 Y0.39 B-1.53163
G1 F106.4 X4.456 Y0.39 B-1.53778
G1 F116.1 X4.409 Y0.6 B-1.53804
G1 F127.7 X4.409 Y3.801 B-1.54157
G1 X3.939 Y3.801 B-1.54209
G1 X3.939 Y0.6 B-1.54563
G1 F116.1 X3.986 Y0.18 B-1.54615
G1 F115.6 X3.941 Y-.159 B-1.54656
G1 F127.1 X3.939 Y-3.805 B-1.55061
G1 F127.7 X4.409 Y-3.805 B-1.55113
G1 F127.1 X4.41 Y-.199 B-1.55513
G1 F115.6 X4.456 Y-0.03 B-1.55534
G1 F106.4 X9.088 Y-0.03 B-1.56149
G1 F115.8 X9.134 Y-.199 B-1.5617
G1 F127.1 X9.135 Y-3.805 B-1.5657
G1 F127.7 X9.605 Y-3.805 B-1.56622
G1 F127.1 X9.604 Y-.159 B-1.57027
G1 F115.8 X9.558 Y0.18 B-1.57068
G1 F116.1 X9.605 Y0.6 B-1.5712
G1 F127.7 X9.605 Y3.801 B-1.57474
G1 X9.135 Y3.801 B-1.57526
G1 X9.135 Y0.6 B-1.57879
G0 F120 X9.092 Y0.405
G1 F300 B--4.92121
;MESH:NONMESH
G0 F600 X9.092 Y0.405 Z1.4
G0 F120 X9.362 Y0.22
G0 X4.208 Y0.162
G0 X4.137 Y3.423
G0 X-2.596 Y3.423
G0 X-2.163 Y3.423
;TIME_ELAPSED:1044.179358
;LAYER:11
;TYPE:WALL-OUTER
;MESH:Part Studio 1-2.stl
G1 F300 B-1.57879
G1 F147.1 X-.789 Y3.42 B-1.58011
G1 F142.9 X0.035 Y3.297 B-1.58093
G1 F137 X0.426 Y3.151 B-1.58136
G1 F131 X0.709 Y2.977 B-1.58172
G1 F125.5 X0.999 Y2.67 B-1.5822
G1 F123.5 X1.208 Y2.232 B-1.58275
G1 F123.7 X1.267 Y1.941 B-1.58309
G1 F124.7 X1.267 Y1.368 B-1.58374
G1 F126.3 X1.214 Y1.052 B-1.5841
G1 F128.8 X1.034 Y0.625 B-1.5846
G1 F137 X0.709 Y0.252 B-1.58511
G1 F144.9 X0.387 Y0.046 B-1.58548
G1 F147.1 X-.171 Y-.15 B-1.58605
G1 F148.5 X-1.031 Y-.253 B-1.58687
G1 F135.1 X-1.694 Y-.256 B-1.58757
G1 F115.6 X-2.357 Y-.258 B-1.58838
G1 F116.7 X-2.399 Y-0.056 B-1.58863
G1 F124.5 X-2.398 Y3.363 B-1.5925
G1 F133.3 X-2.163 Y3.423 B-1.59276
G0 F120 X-1.963 Y3.423
G1 F300 B--4.90724
G0 F120 X-2.596 Y3.423
G0 X-2.356 Y-.662
G1 F300 B-1.59276
G1 F115.6 X-1.684 Y-.66 B-1.59358
G1 F135.1 X-1.012 Y-.657 B-1.59428
G1 F146.3 X-.359 Y-.595 B-1.59491
G1 F145.3 X0.093 Y-.501 B-1.59536
G1 F144.2 X0.651 Y-.285 B-1.59594
G1 F138.6 X1.149 Y0.067 B-1.59657
G1 F132.7 X1.4 Y0.35 B-1.59697
G1 F129 X1.551 Y0.611 B-1.5973
G1 F126.1 X1.694 Y1.007 B-1.59777
G1 F124 X1.766 Y1.579 B-1.59842
G1 F122 X1.739 Y2.113 B-1.59904
G1 F120.5 X1.604 Y2.592 B-1.59963
G1 F119.8 X1.486 Y2.822 B-1.59993
G1 F122 X1.239 Y3.139 B-1.6004
G1 F125.5 X1.028 Y3.319 B-1.60071
G1 F130.4 X0.625 Y3.552 B-1.60121
G1 F136.1 X0.03 Y3.742 B-1.60186
G1 F142.2 X-.753 Y3.827 B-1.60264
G1 F147.1 X-2.163 Y3.831 B-1.60399
G1 F133.3 X-2.867 Y3.777 B-1.60474
G1 F124.5 X-2.869 Y-0.056 B-1.60908
G1 F116.7 X-2.826 Y-.46 B-1.60957
G1 F116.3 X-2.867 Y-.783 B-1.60997
G1 F127.1 X-2.869 Y-3.805 B-1.61332
G1 F127.7 X-2.399 Y-3.805 B-1.61384
G1 F127.1 X-2.398 Y-.823 B-1.61715
G1 F116.3 X-2.356 Y-.662 B-1.61735
G0 F120 X-2.156 Y-.662
G1 F300 B--4.88265
G0 F120 X-2.676 Y-.662
G0 X-2.675 Y3.037
G0 X-3.77 Y3.037
G0 X-4.481 Y3.082
G0 X-7.853 Y3.45
G1 F300 B-1.61735
G1 F143.5 X-7.128 Y3.52 B-1.61807
G1 F143.2 X-6.303 Y3.433 B-1.61889
G1 F140.5 X-5.866 Y3.335 B-1.61934
G1 F138.9 X-5.383 Y3.167 B-1.61986
G1 X-5.237 Y3.574 B-1.6203
G1 F138.2 X-5.806 Y3.768 B-1.62091
G1 X-6.685 Y3.916 B-1.62182
G1 F139.9 X-7.276 Y3.936 B-1.62242
G1 F141.5 X-7.86 Y3.879 B-1.623
G1 F140.5 X-8.374 Y3.73 B-1.62354
G1 F136.7 X-8.68 Y3.569 B-1.62389
G1 F132.5 X-9.049 Y3.273 B-1.6244
G1 F129.9 X-9.208 Y3.086 B-1.62466
G1 F126.1 X-9.378 Y2.754 B-1.62508
G1 F124.5 X-9.492 Y2.192 B-1.62573
G1 F126.1 X-9.436 Y1.554 B-1.62645
G1 F126.6 X-9.213 Y1.021 B-1.62709
G1 F127.1 X-9.019 Y0.771 B-1.62744
G1 F128.8 X-8.589 Y0.417 B-1.62805
G1 F132.7 X-8.016 Y0.107 B-1.62875
G1 F134.8 X-6.689 Y-.411 B-1.63024
G1 F132.7 X-6.176 Y-.689 B-1.63086
G1 F128.2 X-5.825 Y-.965 B-1.63135
G1 F124.5 X-5.592 Y-1.309 B-1.63182
G1 F125 X-5.504 Y-1.597 B-1.63216
G1 F127.1 X-5.47 Y-2.055 B-1.63267
G1 F129 X-5.521 Y-2.372 B-1.63302
G1 F131.6 X-5.622 Y-2.648 B-1.63334
G1 F135.1 X-5.773 Y-2.875 B-1.63362
G1 F140.2 X-6.113 Y-3.178 B-1.63408
G1 F144.6 X-6.519 Y-3.376 B-1.63452
G1 F147.1 X-6.866 Y-3.463 B-1.63486
G1 F147.4 X-7.443 Y-3.529 B-1.63542
G1 F144.2 X-8.351 Y-3.487 B-1.63631
G1 F140.2 X-9.264 Y-3.304 B-1.63724
G1 F138.9 X-9.625 Y-3.177 B-1.63763
G1 F139.5 X-9.625 Y-3.63 B-1.63809
G1 F138.2 X-9.305 Y-3.744 B-1.63844
G1 X-8.534 Y-3.895 B-1.63924
G1 F140.2 X-7.82 Y-3.946 B-1.63996
G1 F142.2 X-7.149 Y-3.921 B-1.64063
G1 F144.6 X-6.449 Y-3.788 B-1.64132
G1 F142.9 X-6.052 Y-3.629 B-1.64174
G1 F138.9 X-5.659 Y-3.376 B-1.64222
G1 F135.1 X-5.314 Y-3.011 B-1.64274
G1 F131.3 X-5.153 Y-2.721 B-1.6431
G1 F128.8 X-5.001 Y-2.098 B-1.6438
G1 F126.1 X-5.048 Y-1.422 B-1.64456
G1 F124 X-5.152 Y-1.104 B-1.64494
G1 F124.5 X-5.474 Y-.639 B-1.64558
G1 F125.8 X-5.716 Y-.44 B-1.64593
G1 F128.2 X-6.21 Y-.143 B-1.64657
G1 F131.6 X-6.677 Y0.069 B-1.64712
G1 F133.9 X-7.846 Y0.516 B-1.64844
G1 F134.5 X-8.422 Y0.853 B-1.64914
G1 F131 X-8.748 Y1.172 B-1.64963
G1 F127.7 X-8.978 Y1.681 B-1.65024
G1 F126.6 X-9.014 Y2.228 B-1.65086
G1 F127.7 X-8.823 Y2.827 B-1.65155
G1 F131.6 X-8.643 Y3.04 B-1.65185
G1 F136.7 X-8.213 Y3.33 B-1.65238
G1 F140.8 X-7.853 Y3.45 B-1.65276
G0 F120 X-7.654 Y3.469
G1 F300 B--4.84724
G0 F120 X-8.953 Y3.037
G0 X-8.298 Y3.531
G0 X-7.654 Y2.595
G0 X-4.858 Y2.061
G0 X-3.758 Y4.691
G0 X-.721 Y4.697
G0 X0.2 Y4.613
G0 X0.638 Y4.478
G0 X3.042 Y3.531
G0 X9.135 Y0.6
G1 F300 B-1.65276
G1 F116.1 X9.088 Y0.39 B-1.65303
G1 F106.4 X4.456 Y0.39 B-1.65917
G1 F116.1 X4.409 Y0.6 B-1.65943
G1 F127.7 X4.409 Y3.801 B-1.66297
G1 X3.939 Y3.801 B-1.66349
G1 X3.939 Y0.6 B-1.66702
G1 F116.1 X3.986 Y0.18 B-1.66754
G1 F115.6 X3.941 Y-.159 B-1.66796
G1 F127.1 X3.939 Y-3.805 B-1.672
G1 F127.7 X4.409 Y-3.805 B-1.67252
G1 F127.1 X4.41 Y-.199 B-1.67652
G1 F115.6 X4.456 Y-0.03 B-1.67674
G1 F106.4 X9.088 Y-0.03 B-1.68288
G1 F115.8 X9.134 Y-.199 B-1.68309
G1 F127.1 X9.135 Y-3.805 B-1.6871
G1 F127.7 X9.605 Y-3.805 B-1.68761
G1 F127.1 X9.604 Y-.159 B-1.69166
G1 F115.8 X9.558 Y0.18 B-1.69208
G1 F116.1 X9.605 Y0.6 B-1.69259
G1 F127.7 X9.605 Y3.801 B-1.69613
G1 X9.135 Y3.801 B-1.69665
G1 X9.135 Y0.6 B-1.70019
G0 F120 X9.092 Y0.405
G1 F300 B--4.79981
;MESH:NONMESH
G0 F600 X9.092 Y0.405 Z1.5
G0 F120 X9.362 Y0.22
G0 X4.208 Y0.162
G0 X4.137 Y3.426
G0 X-2.596 Y3.426
G0 X-2.163 Y3.426
;TIME_ELAPSED:1133.091838
;LAYER:12
;TYPE:WALL-OUTER
;MESH:Part Studio 1-2.stl
G1 F300 B-1.70019
G1 F147.4 X-.803 Y3.42 B-1.70149
G1 F145.6 X0.015 Y3.305 B-1.70229
G1 F139.2 X0.375 Y3.172 B-1.70268
G1 F131.6 X0.699 Y2.982 B-1.70308
G1 F126.6 X0.997 Y2.671 B-1.70356
G1 F123 X1.201 Y2.267 B-1.70408
G1 F122.2 X1.268 Y1.94 B-1.70446
G1 F123.5 X1.271 Y1.368 B-1.70512
G1 F126.6 X1.151 Y0.866 B-1.70569
G1 F131.6 X1.004 Y0.576 B-1.70604
G1 F137 X0.807 Y0.339 B-1.70636
G1 F142.2 X0.384 Y0.041 B-1.70687
G1 F147.1 X0.036 Y-0.093 B-1.70723
G1 F148.5 X-.432 Y-.198 B-1.70769
G1 F147.8 X-1.054 Y-.254 B-1.70828
G1 F124.5 X-2.356 Y-.258 B-1.70976
G1 F116.7 X-2.399 Y-0.056 B-1.71001
G1 F124.5 X-2.398 Y3.366 B-1.71389
G1 F133.6 X-2.163 Y3.426 B-1.71414
G0 F120 X-1.963 Y3.426
G1 F300 B--4.78586
G0 F120 X-2.596 Y3.426
G0 X-2.356 Y-.662
G1 F300 B-1.71414
G1 F114.9 X-1.547 Y-.657 B-1.71513
G1 F132.7 X-.738 Y-.652 B-1.71599
G1 F144.9 X-0.062 Y-.543 B-1.71666
G1 X0.556 Y-.337 B-1.7173
G1 F141.5 X0.889 Y-.144 B-1.71768
G1 F136.4 X1.256 Y0.17 B-1.71818
G1 F131.9 X1.515 Y0.538 B-1.71866
G1 F126.1 X1.697 Y1.024 B-1.71924
G1 F123.5 X1.751 Y1.304 B-1.71957
G1 F123 X1.769 Y1.771 B-1.7201
G1 F121.5 X1.664 Y2.441 B-1.72089
G1 F121 X1.488 Y2.819 B-1.72138
G1 F122.4 X1.137 Y3.233 B-1.722
G1 F127.7 X0.803 Y3.465 B-1.72245
G1 F132.5 X0.531 Y3.589 B-1.72277
G1 F137.6 X0.044 Y3.73 B-1.72329
G1 F143.9 X-.775 Y3.828 B-1.7241
G1 F147.4 X-2.162 Y3.832 B-1.72543
G1 F133.6 X-2.867 Y3.778 B-1.72617
G1 F124.5 X-2.869 Y-0.056 B-1.73052
G1 F116.7 X-2.826 Y-.46 B-1.73101
G1 F116.3 X-2.867 Y-.783 B-1.7314
G1 F127.1 X-2.869 Y-3.805 B-1.73476
G1 F127.7 X-2.399 Y-3.805 B-1.73528
G1 F127.1 X-2.398 Y-.823 B-1.73859
G1 F116.3 X-2.356 Y-.662 B-1.73879
G0 F120 X-2.156 Y-.661
G1 F300 B--4.76121
G0 F120 X-2.676 Y-.661
G0 X-2.675 Y3.438
G0 X-3.77 Y3.438
G0 X-4.481 Y3.081
G0 X-8.312 Y3.281
G1 F300 B-1.73879
G1 F140.8 X-7.676 Y3.485 B-1.73946
G1 F143.2 X-7.09 Y3.52 B-1.74004
G1 F141.8 X-6.338 Y3.44 B-1.74079
G1 F139.9 X-5.879 Y3.339 B-1.74126
G1 F138.9 X-5.383 Y3.167 B-1.7418
G1 X-5.237 Y3.574 B-1.74223
G1 F138.6 X-5.812 Y3.769 B-1.74285
G1 F138.2 X-6.439 Y3.888 B-1.7435
G1 F139.5 X-6.951 Y3.934 B-1.74402
G1 F140.8 X-7.585 Y3.921 B-1.74466
G1 F139.5 X-8.178 Y3.797 B-1.74527
G1 F137.6 X-8.531 Y3.657 B-1.74566
G1 F135.7 X-8.938 Y3.383 B-1.74617
G1 F131.9 X-9.208 Y3.087 B-1.7466
G1 F128.8 X-9.421 Y2.639 B-1.74714
G1 F126.3 X-9.492 Y2.2 B-1.74764
G1 F125.3 X-9.476 Y1.81 B-1.74808
G1 F125 X-9.39 Y1.413 B-1.74854
G1 F125.5 X-9.217 Y1.03 B-1.74901
G1 F126.8 X-9.075 Y0.83 B-1.74928
G1 F128.8 X-8.595 Y0.422 B-1.74997
G1 F131.3 X-7.925 Y0.067 B-1.75079
G1 F133.9 X-7.255 Y-.183 B-1.75154
G1 X-6.615 Y-.452 B-1.75227
G1 F130.2 X-6.02 Y-.796 B-1.75302
G1 F125.5 X-5.64 Y-1.213 B-1.75365
G1 F124 X-5.524 Y-1.502 B-1.75401
G1 F126.1 X-5.469 Y-1.987 B-1.75455
G1 F129.6 X-5.528 Y-2.394 B-1.755
G1 F133.9 X-5.688 Y-2.76 B-1.75542
G1 F137 X-5.86 Y-2.976 B-1.75571
G1 F140.8 X-6.235 Y-3.253 B-1.75617
G1 F144.9 X-6.837 Y-3.458 B-1.75679
G1 F145.6 X-7.483 Y-3.537 B-1.75742
G1 F144.2 X-8.306 Y-3.493 B-1.75823
G1 F141.5 X-9.022 Y-3.365 B-1.75895
G1 F138.2 X-9.622 Y-3.175 B-1.7596
G1 F137.3 X-9.622 Y-3.627 B-1.76006
G1 F137 X-9.3 Y-3.743 B-1.76041
G1 F138.2 X-8.548 Y-3.895 B-1.76119
G1 F140.5 X-7.812 Y-3.946 B-1.76194
G1 F142.9 X-7.171 Y-3.922 B-1.76257
G1 F143.5 X-6.578 Y-3.819 B-1.76316
G1 F143.2 X-6.059 Y-3.632 B-1.7637
G1 F140.8 X-5.551 Y-3.284 B-1.76432
G1 F134.5 X-5.243 Y-2.902 B-1.76484
G1 F129.6 X-5.042 Y-2.366 B-1.76546
G1 F127.4 X-4.997 Y-1.982 B-1.76589
G1 F125.5 X-5.077 Y-1.304 B-1.76665
G1 F123.7 X-5.203 Y-1.001 B-1.76703
G1 F123 X-5.374 Y-.757 B-1.76737
G1 F124 X-5.646 Y-.495 B-1.7678
G1 F126.1 X-6.043 Y-.224 B-1.76834
G1 F129.3 X-6.677 Y0.068 B-1.7691
G1 F132.7 X-7.715 Y0.464 B-1.77028
G1 F133.3 X-8.41 Y0.848 B-1.77112
G1 F130.2 X-8.772 Y1.207 B-1.77167
G1 F127.1 X-8.969 Y1.657 B-1.77222
G1 F126.6 X-9.014 Y2.224 B-1.77285
G1 X-8.97 Y2.497 B-1.77316
G1 F128.8 X-8.824 Y2.828 B-1.77356
G1 F131.9 X-8.633 Y3.053 B-1.77387
G1 F135.7 X-8.312 Y3.281 B-1.77428
G0 F120 X-8.122 Y3.342
G1 F300 B--4.72572
G0 F120 X-8.177 Y3.54
G0 X-7.72 Y3.725
G0 X-7.115 Y3.762
G0 X-6.286 Y3.676
G0 X-5.901 Y3.585
G0 X-5.505 Y3.448
G0 X-4.481 Y3.081
G0 X-3.758 Y4.691
G0 X-.723 Y4.697
G0 X0.202 Y4.598
G0 X1.035 Y4.319
G0 X3.042 Y3.448
G0 X9.135 Y0.6
G1 F300 B-1.77428
G1 F116.1 X9.088 Y0.39 B-1.77454
G1 F106.4 X4.456 Y0.39 B-1.78069
G1 F116.1 X4.409 Y0.6 B-1.78095
G1 F127.7 X4.409 Y3.801 B-1.78449
G1 X3.939 Y3.801 B-1.785
G1 X3.939 Y0.6 B-1.78854
G1 F116.1 X3.986 Y0.18 B-1.78906
G1 F115.6 X3.941 Y-.159 B-1.78947
G1 F127.1 X3.939 Y-3.805 B-1.79352
G1 F127.7 X4.409 Y-3.805 B-1.79404
G1 F127.1 X4.41 Y-.199 B-1.79804
G1 F115.6 X4.456 Y-0.03 B-1.79825
G1 F106.4 X9.088 Y-0.03 B-1.8044
G1 F115.8 X9.134 Y-.199 B-1.80461
G1 F127.1 X9.135 Y-3.805 B-1.80861
G1 F127.7 X9.605 Y-3.805 B-1.80913
G1 F127.1 X9.604 Y-.159 B-1.81318
G1 F115.8 X9.558 Y0.18 B-1.8136
G1 F116.1 X9.605 Y0.6 B-1.81411
G1 F127.7 X9.605 Y3.801 B-1.81765
G1 X9.135 Y3.801 B-1.81817
G1 X9.135 Y0.6 B-1.8217
G0 F120 X9.092 Y0.405
;TIME_ELAPSED:1211.593555
G1 F300 B--4.6783

M82 ;absolute B-xtrusion mode
M104 S0
;End of Gcode
;SETTING_3 {"global_quality": "[general]\\nversion = 4\\nname = octaris\\ndefini
;SETTING_3 tion = custom\\n\\n[metadata]\\ntype = quality_changes\\nquality_type
;SETTING_3  = normal\\nsetting_version = 25\\n\\n[values]\\nadhesion_type = none
;SETTING_3 \\n\\n", "extruder_quality": ["[general]\\nversion = 4\\nname = octar
;SETTING_3 is\\ndefinition = custom\\n\\n[metadata]\\ntype = quality_changes\\nq
;SETTING_3 uality_type = normal\\nintent_category = default\\nposition = 0\\nset
;SETTING_3 ting_version = 25\\n\\n[values]\\ncool_fan_enabled = False\\nmaterial
;SETTING_3 _flow = 15\\nretraction_speed = 5.0\\nspeed_print = 5.0\\nspeed_trave
;SETTING_3 l = 2.0\\n\\n", "[general]\\nversion = 4\\nname = octaris\\ndefinitio
;SETTING_3 n = fdmprinter\\n\\n[metadata]\\ntype = quality_changes\\nquality_typ
;SETTING_3 B- = normal\\nintent_category = default\\nposition = 1\\nsetting_versi
;SETTING_3 on = 25\\n\\n[values]\\n\\n"]}
